{
"type": "FeatureCollection",
"name": "nj1936river",
"crs": { "type": "name", "properties": { "name": "urn:ogc:def:crs:OGC:1.3:CRS84" } },
"features": [
{ "type": "Feature", "properties": { "OBJECTID": 30, "SHAPE_Leng": 739.94176649200006, "len_m": 730.27964824469518, "len_km": 0.73 }, "geometry": { "type": "LineString", "coordinates": [ [ 118.79556876996844, 32.027968274032794 ], [ 118.795487863754872, 32.027762350964323 ], [ 118.795157382120564, 32.027335734379612 ], [ 118.794902659458074, 32.027005267949612 ], [ 118.79452107114767, 32.026739204549806 ], [ 118.793941128288111, 32.026650187689029 ], [ 118.793285668353803, 32.026447124105147 ], [ 118.793002406229277, 32.026158133460711 ], [ 118.792917423912542, 32.02569806055196 ], [ 118.792813632548686, 32.025070804066601 ], [ 118.792777419057188, 32.024629088868835 ], [ 118.791821322348213, 32.024609246459562 ], [ 118.791246087854148, 32.024589449854311 ], [ 118.790413234812817, 32.024460626450846 ] ] } },
{ "type": "Feature", "properties": { "OBJECTID": 31, "SHAPE_Leng": 702.61150608699995, "len_m": 702.59953854286414, "len_km": 0.7 }, "geometry": { "type": "LineString", "coordinates": [ [ 118.790273669977665, 32.024448253636663 ], [ 118.78986337558662, 32.024322175732088 ], [ 118.78912805759758, 32.02401812694891 ], [ 118.788576990094157, 32.023705096656172 ], [ 118.788133139614402, 32.023384739719056 ], [ 118.786262755704314, 32.022141154111168 ], [ 118.784781980084702, 32.021156952373126 ], [ 118.784239877435866, 32.020796241105884 ] ] } },
{ "type": "Feature", "properties": { "OBJECTID": 32, "SHAPE_Leng": 3206.34233808, "len_m": 3206.2871599323257, "len_km": 3.21 }, "geometry": { "type": "LineString", "coordinates": [ [ 118.784086614540612, 32.020702099141744 ], [ 118.783249205297764, 32.020278004704586 ], [ 118.782132779795674, 32.019733469282997 ], [ 118.781281606967994, 32.019242093812991 ], [ 118.78103592107999, 32.01903403582898 ], [ 118.780760114480159, 32.018715267760669 ], [ 118.780433273613596, 32.018285666752462 ], [ 118.780152525747226, 32.017811774342739 ], [ 118.779916687098037, 32.017383046404234 ], [ 118.779746454612436, 32.016758122667667 ], [ 118.779650314784945, 32.016089177696053 ], [ 118.779560562650659, 32.015730446116088 ], [ 118.779301953875958, 32.0154356988374 ], [ 118.778984088181176, 32.01512248699327 ], [ 118.778636485544354, 32.014940206067983 ], [ 118.778231740646277, 32.014843858771286 ], [ 118.77774169667299, 32.014845101046092 ], [ 118.777190417371258, 32.014972218856002 ], [ 118.776736332480894, 32.015169418600465 ], [ 118.776272632737999, 32.015558599340842 ], [ 118.775783804182936, 32.015994655587377 ], [ 118.775451655221275, 32.016335001116801 ], [ 118.774927882594241, 32.016976490629183 ], [ 118.774746372196702, 32.017279658975951 ], [ 118.774477983798164, 32.017747522776958 ], [ 118.774309778014882, 32.018182495859747 ], [ 118.774061812100285, 32.018929234311315 ], [ 118.77387632985166, 32.019609774817816 ], [ 118.773819559047752, 32.020289697473586 ], [ 118.773752132779478, 32.020734662837619 ], [ 118.773748700654011, 32.020992293473931 ], [ 118.773621694021244, 32.021697256183444 ], [ 118.773477469047592, 32.022223119414789 ], [ 118.773260380001815, 32.022962997340535 ], [ 118.773039563066234, 32.023562077220845 ], [ 118.772866820957802, 32.023915886911098 ], [ 118.77269964492983, 32.024235559156004 ], [ 118.77246348486257, 32.024551372228139 ], [ 118.77217517013554, 32.024961320601378 ], [ 118.771842528976237, 32.025335051888305 ], [ 118.771243297420256, 32.025959092708291 ], [ 118.770840422260591, 32.026348841155858 ], [ 118.770563013122469, 32.026570415066139 ], [ 118.769943244383199, 32.02705348892195 ], [ 118.769346859797949, 32.027462827484115 ], [ 118.768435627014355, 32.028169712730055 ], [ 118.767678466640362, 32.028663369240221 ], [ 118.767005945005877, 32.029110129321978 ], [ 118.766672801361608, 32.029309679991727 ], [ 118.766244032112155, 32.029539314500795 ], [ 118.766021182551484, 32.029658820656401 ], [ 118.76552781281292, 32.029902138590202 ], [ 118.764919406558093, 32.030161034602273 ], [ 118.764432671652855, 32.030352058729505 ] ] } },
{ "type": "Feature", "properties": { "OBJECTID": 33, "SHAPE_Leng": 1158.46470802, "len_m": 1158.445017381272, "len_km": 1.16 }, "geometry": { "type": "LineString", "coordinates": [ [ 118.774361397266148, 32.032129586418641 ], [ 118.774282099020382, 32.032195621175525 ], [ 118.773251837405851, 32.03258564905304 ], [ 118.773066506548375, 32.032622846565772 ], [ 118.772627967826139, 32.032745048766031 ], [ 118.771894501886564, 32.032931194352372 ], [ 118.771539651924982, 32.03307806074006 ], [ 118.771226551675895, 32.033244416301457 ], [ 118.770912462388338, 32.033484721417842 ], [ 118.770349675530625, 32.033892003508569 ], [ 118.770153056765309, 32.034007919973483 ], [ 118.769762572983453, 32.03423224490713 ], [ 118.768860857301405, 32.034850951158113 ], [ 118.768624984704005, 32.035026323143477 ], [ 118.768461275524416, 32.035200164834585 ], [ 118.768282582089512, 32.035367819285412 ], [ 118.768178637214447, 32.035600615045126 ], [ 118.768112022735423, 32.035764586291073 ], [ 118.768012315141974, 32.035890063026805 ], [ 118.767918140990687, 32.035977715414653 ], [ 118.767765578523111, 32.036119084858939 ], [ 118.767489857792555, 32.036211836086174 ], [ 118.767253565653505, 32.036288269560465 ], [ 118.767053616090834, 32.036369826955763 ], [ 118.766917596434524, 32.036487792796301 ], [ 118.766726302781265, 32.03655034830809 ], [ 118.76617893559964, 32.036640452995542 ], [ 118.765879223579915, 32.036717962770041 ], [ 118.765435680087762, 32.036926667365478 ], [ 118.764911592487863, 32.037160140120882 ], [ 118.76432070772654, 32.037361944514387 ], [ 118.764161185041161, 32.037369494138872 ] ] } },
{ "type": "Feature", "properties": { "OBJECTID": 34, "SHAPE_Leng": 109.92663656000001, "len_m": 109.92478319834525, "len_km": 0.11 }, "geometry": { "type": "LineString", "coordinates": [ [ 118.774361397266148, 32.032129586418641 ], [ 118.774469923744249, 32.032124312665523 ], [ 118.774692319627007, 32.03208065525331 ], [ 118.774892260589681, 32.032040597417208 ], [ 118.775070028268786, 32.031983147486429 ], [ 118.775270249356467, 32.031922097254231 ], [ 118.775470624863701, 32.03184807259376 ] ] } },
{ "type": "Feature", "properties": { "OBJECTID": 35, "SHAPE_Leng": 565.67154631200003, "len_m": 565.66201085798605, "len_km": 0.57 }, "geometry": { "type": "LineString", "coordinates": [ [ 118.775470624863701, 32.03184807259376 ], [ 118.77569347340382, 32.03177158653525 ], [ 118.776233366634372, 32.031608839859267 ], [ 118.776633399514679, 32.031517268693051 ], [ 118.776833516083556, 32.03146384972316 ], [ 118.777220786480612, 32.031345344829866 ], [ 118.777458940926948, 32.031271384643439 ], [ 118.77777885420231, 32.031138957177681 ], [ 118.778280707486388, 32.03097201712356 ], [ 118.778656067249514, 32.030882110672479 ], [ 118.778943323197367, 32.030846705242304 ], [ 118.779706266304231, 32.030758618652449 ], [ 118.780303886401853, 32.030634582976944 ], [ 118.780744184748229, 32.030547202960619 ], [ 118.781081506782982, 32.030453106542929 ], [ 118.781192774724389, 32.030417701053622 ] ] } },
{ "type": "Feature", "properties": { "OBJECTID": 36, "SHAPE_Leng": 1111.37457513, "len_m": 1111.3556009735571, "len_km": 1.11 }, "geometry": { "type": "LineString", "coordinates": [ [ 118.781192774724389, 32.030417701053622 ], [ 118.781421221420686, 32.030347580486456 ], [ 118.781792322123962, 32.030240446134464 ], [ 118.782231008173724, 32.030105330485796 ], [ 118.782685627243467, 32.029951279751614 ], [ 118.783626726845171, 32.029605307737121 ], [ 118.783966989412448, 32.029457790031877 ], [ 118.784406399865276, 32.02926732304627 ], [ 118.784913996883617, 32.029003072583862 ], [ 118.785248843505471, 32.028831714119022 ], [ 118.785584218691739, 32.028639219185798 ], [ 118.785788555121698, 32.028435044818693 ], [ 118.785905271335778, 32.028249116805675 ], [ 118.786024529692568, 32.028040309538895 ], [ 118.786250559567378, 32.0277199157685 ], [ 118.786564810178533, 32.02733547233305 ], [ 118.787052983811677, 32.027013767500165 ], [ 118.787533427937561, 32.026768332054615 ], [ 118.78793974323834, 32.026537455789637 ], [ 118.788244799844506, 32.026339964913959 ], [ 118.788469812817709, 32.026095902468903 ], [ 118.78869978771435, 32.025985490084103 ], [ 118.788968195176295, 32.025848723882426 ], [ 118.789142164756583, 32.02573777669437 ], [ 118.789257911686207, 32.025588536702855 ], [ 118.789474668346159, 32.025326778595932 ], [ 118.789705561863528, 32.024975886386152 ], [ 118.79004734693973, 32.024540163721021 ], [ 118.790115066701517, 32.02439951690441 ] ] } },
{ "type": "Feature", "properties": { "OBJECTID": 37, "SHAPE_Leng": 71.807883781000001, "len_m": 71.806642806961719, "len_km": 0.07 }, "geometry": { "type": "LineString", "coordinates": [ [ 118.788330337495154, 32.023527071215959 ], [ 118.788547675472685, 32.023255056842224 ], [ 118.788748377565, 32.022986454850958 ] ] } },
{ "type": "Feature", "properties": { "OBJECTID": 70, "SHAPE_Leng": 730.20302196900002, "len_m": 730.19035803563736, "len_km": 0.73 }, "geometry": { "type": "LineString", "coordinates": [ [ 118.770882333507615, 32.026308296274536 ], [ 118.771061458981862, 32.026565027756952 ], [ 118.771604089779856, 32.02720251653907 ], [ 118.772098571629883, 32.027713090979852 ], [ 118.772498233509452, 32.028194116377733 ], [ 118.772815390425691, 32.028772158611702 ], [ 118.773038249103607, 32.029324015405585 ], [ 118.773323957682948, 32.029907937787009 ], [ 118.773662573004316, 32.030557758696126 ], [ 118.77396463015512, 32.031219154827575 ], [ 118.774245051432587, 32.031823081638144 ], [ 118.774361397266148, 32.032129586418641 ] ] } }
]
}
