{
"type": "FeatureCollection",
"name": "海绵小区改造",
"crs": { "type": "name", "properties": { "name": "urn:ogc:def:crs:OGC:1.3:CRS84" } },
"features": [
{ "type": "Feature", "properties": { "Name": "校园雨污分流", "area_ha": 2.5617067241123217 }, "geometry": { "type": "Polygon", "coordinates": [ [ [ 118.779062937805165, 32.03099799088438 ], [ 118.77976720274215, 32.030762245785354 ], [ 118.779708668001376, 32.030533341636563 ], [ 118.779960771895063, 32.030414725505466 ], [ 118.779808129471576, 32.029881012401852 ], [ 118.779611288559877, 32.029135884187781 ], [ 118.779552753819061, 32.029088770859808 ], [ 118.779380100128378, 32.028416335179486 ], [ 118.77929872256199, 32.02809796329705 ], [ 118.779281590442793, 32.028075120471279 ], [ 118.779261602970337, 32.028073692794806 ], [ 118.779237332468142, 32.028073692794806 ], [ 118.779200212876518, 32.028087969560701 ], [ 118.779120262986581, 32.028116523092876 ], [ 118.77901033188823, 32.028153642684572 ], [ 118.778782696785242, 32.028227405975649 ], [ 118.778749384331164, 32.028236923819797 ], [ 118.778737487026078, 32.028265477351788 ], [ 118.778737487026078, 32.028308307649809 ], [ 118.778754143253067, 32.028391588785034 ], [ 118.778804111934406, 32.028531976984418 ], [ 118.778827906544407, 32.028622396502733 ], [ 118.778816009239222, 32.028650950034717 ], [ 118.778789835168254, 32.028665226800797 ], [ 118.778687518345009, 32.028689021410806 ], [ 118.7786066166707, 32.028729472247953 ], [ 118.778575683677786, 32.028748507936029 ], [ 118.778563786372615, 32.028769923085122 ], [ 118.778568545294775, 32.028798476617112 ], [ 118.778599478287788, 32.028886516674334 ], [ 118.778620893436951, 32.028991212958651 ], [ 118.778623272897789, 32.029031663795649 ], [ 118.778604237209734, 32.029072114632818 ], [ 118.778578063138639, 32.029093529781797 ], [ 118.778573304216721, 32.029133980618944 ], [ 118.778580442599733, 32.029176810917015 ], [ 118.779062937805165, 32.03099799088438 ] ] ] } },
{ "type": "Feature", "properties": { "Name": "邀贵井", "area_ha": 0.38356273722209799 }, "geometry": { "type": "Polygon", "coordinates": [ [ [ 118.785377456244319, 32.0291887875374 ], [ 118.786121751647002, 32.028556802694318 ], [ 118.785883805546504, 32.02825794239191 ], [ 118.785150931556572, 32.028895637941446 ], [ 118.785377456244319, 32.0291887875374 ] ] ] } },
{ "type": "Feature", "properties": { "Name": "琵琶小区", "area_ha": 4.3969327351290799 }, "geometry": { "type": "Polygon", "coordinates": [ [ [ 118.783794266001905, 32.018606142644899 ], [ 118.784010029577288, 32.019405974667563 ], [ 118.784062377719238, 32.019589193165018 ], [ 118.784148038315607, 32.019848554414637 ], [ 118.784208952517233, 32.019995605104832 ], [ 118.784238457833681, 32.020043194324899 ], [ 118.784267963150114, 32.020075554994605 ], [ 118.784293661329016, 32.020096494251327 ], [ 118.784316504154745, 32.020113626370687 ], [ 118.784337443411673, 32.02011457815513 ], [ 118.784387887984977, 32.020103156742145 ], [ 118.784440236127111, 32.020087928191799 ], [ 118.784508764604084, 32.020073651425726 ], [ 118.784886226434978, 32.019997508673548 ], [ 118.785319288337874, 32.019909468616341 ], [ 118.786555814907402, 32.019651693673943 ], [ 118.786488000268719, 32.019323328055187 ], [ 118.786366846045894, 32.018707444231602 ], [ 118.786243114073514, 32.018582284582749 ], [ 118.786031342043898, 32.018049285317375 ], [ 118.786026583121824, 32.017935071189079 ], [ 118.785955870337489, 32.017802704391045 ], [ 118.784864189435652, 32.018210208277473 ], [ 118.783794266001905, 32.018606142644899 ] ] ] } },
{ "type": "Feature", "properties": { "Name": "莲子营小区", "area_ha": 0.69907492718059494 }, "geometry": { "type": "Polygon", "coordinates": [ [ [ 118.788083845278607, 32.018256159622979 ], [ 118.788376451564318, 32.018226892252571 ], [ 118.788317440931436, 32.017988946152052 ], [ 118.788461160376201, 32.017964199757621 ], [ 118.788444313792297, 32.017869497209624 ], [ 118.788662748312504, 32.017858551688846 ], [ 118.788582798422695, 32.017372427805469 ], [ 118.788484288737095, 32.017371000128833 ], [ 118.788445027630601, 32.017395270631084 ], [ 118.788334977559103, 32.017159822964572 ], [ 118.788501539829326, 32.017083680212338 ], [ 118.788436699517092, 32.016917712807192 ], [ 118.787765592369055, 32.017155658907882 ], [ 118.787875642440653, 32.017453091533469 ], [ 118.78796189790215, 32.017592884867668 ], [ 118.788083845278607, 32.018256159622979 ] ] ] } }
]
}
