{
"type": "FeatureCollection",
"name": "内涝路段",
"crs": { "type": "name", "properties": { "name": "urn:ogc:def:crs:OGC:1.3:CRS84" } },
"features": [
{ "type": "Feature", "properties": { "Id": 0, "len_km": 0.2624468863119041 }, "geometry": { "type": "LineString", "coordinates": [ [ 118.775117250861157, 32.016795964023068 ], [ 118.774020319337396, 32.016047623536799 ], [ 118.773423312570912, 32.014994949987745 ] ] } },
{ "type": "Feature", "properties": { "Id": 0, "len_km": 0.22354223959427028 }, "geometry": { "type": "LineString", "coordinates": [ [ 118.781924268537963, 32.015090132562037 ], [ 118.784236063621492, 32.014662325301799 ] ] } },
{ "type": "Feature", "properties": { "Id": 0, "len_km": 0.77634005747793144 }, "geometry": { "type": "LineString", "coordinates": [ [ 118.777774139642787, 32.013509371587389 ], [ 118.779279148729032, 32.013069171301396 ], [ 118.780114042109489, 32.012827061143831 ], [ 118.780467986934212, 32.012731882703605 ], [ 118.780810034453765, 32.012645627242165 ], [ 118.781238337434914, 32.012532602844516 ], [ 118.781598230912053, 32.012437424404276 ], [ 118.782053302829425, 32.012330348659034 ], [ 118.78250584656935, 32.012227288254195 ], [ 118.78265337315176, 32.012191596339015 ], [ 118.783100711820765, 32.01203217245174 ], [ 118.783495226455642, 32.011863992147738 ], [ 118.783569465639147, 32.011822113634111 ], [ 118.783655126235288, 32.011742163744231 ], [ 118.783874036647916, 32.0114756641117 ], [ 118.784273913001343, 32.010972106710454 ], [ 118.784407162817828, 32.010772231986003 ], [ 118.784466173450809, 32.01057997153665 ], [ 118.784563255459702, 32.010289011044883 ] ] } },
{ "type": "Feature", "properties": { "Id": 0, "len_km": 0.2862649636334002 }, "geometry": { "type": "LineString", "coordinates": [ [ 118.779061880928651, 32.02312919265303 ], [ 118.778353159860529, 32.020619643922451 ] ] } },
{ "type": "Feature", "properties": { "Id": 0, "len_km": 0.46981480663627212 }, "geometry": { "type": "LineString", "coordinates": [ [ 118.769688428052646, 32.034274503235743 ], [ 118.769142140727467, 32.033425707059109 ], [ 118.768468500221161, 32.032352119554737 ], [ 118.767297240275624, 32.030560349880368 ] ] } }
]
}
