{
"type": "FeatureCollection",
"name": "njgreen",
"crs": { "type": "name", "properties": { "name": "urn:ogc:def:crs:OGC:1.3:CRS84" } },
"features": [
{ "type": "Feature", "properties": { "area_ha": 0.30042682541050014 }, "geometry": { "type": "MultiPolygon", "coordinates": [ [ [ [ 118.792334520721624, 32.016611750731784 ], [ 118.792274400143469, 32.016611660799583 ], [ 118.791973799950938, 32.0167112004616 ], [ 118.792124100047204, 32.017011480495455 ], [ 118.792404540137454, 32.017542030140646 ], [ 118.792464479951832, 32.017692150372511 ], [ 118.792688579314586, 32.018256507332012 ], [ 118.792577107447642, 32.017815299936217 ], [ 118.792506459405672, 32.017371878409506 ], [ 118.792385923271809, 32.016795668385441 ], [ 118.792352813831371, 32.016619087401011 ], [ 118.792334520721624, 32.016611750731784 ] ] ], [ [ [ 118.792797696756338, 32.018651134342406 ], [ 118.792786904891841, 32.018612358273742 ], [ 118.792805040620237, 32.018702900218727 ], [ 118.792812302645757, 32.018701302123418 ], [ 118.792797696756338, 32.018651134342406 ] ] ] ] } },
{ "type": "Feature", "properties": { "area_ha": 6.7006370936280382 }, "geometry": { "type": "Polygon", "coordinates": [ [ [ 118.791061920671154, 32.018480060806212 ], [ 118.790410680208765, 32.018589050544279 ], [ 118.790420760709594, 32.018689080336856 ], [ 118.790440740048211, 32.018839160099219 ], [ 118.79045082054904, 32.018909180414369 ], [ 118.790430660446646, 32.018949139990866 ], [ 118.790390699970885, 32.018989100466683 ], [ 118.790320500690655, 32.019018980441672 ], [ 118.790250480375448, 32.019008850478144 ], [ 118.790180280195841, 32.018978750169254 ], [ 118.790120160517063, 32.018948639967789 ], [ 118.790029980099575, 32.018878490150257 ], [ 118.789999920260129, 32.018848430310868 ], [ 118.789959960683746, 32.018768369964334 ], [ 118.789929899945037, 32.018608260063218 ], [ 118.789889760504138, 32.018498190239313 ], [ 118.789749720773102, 32.018848250446467 ], [ 118.789829820689761, 32.018928350363126 ], [ 118.789920000207871, 32.019018440848413 ], [ 118.790020080362524, 32.019098540765071 ], [ 118.790110080016234, 32.019168650113158 ], [ 118.790140140754943, 32.019188720283239 ], [ 118.790160299957961, 32.019208740091358 ], [ 118.790170200594389, 32.019248790499319 ], [ 118.790140140754943, 32.01938879066023 ], [ 118.790120160517063, 32.019448820406808 ], [ 118.79000010012453, 32.019658830090975 ], [ 118.78998011988665, 32.019678860690931 ], [ 118.789950060047317, 32.019688850360183 ], [ 118.789900019969991, 32.019688799998164 ], [ 118.789860060393494, 32.019708780236044 ], [ 118.789840080155614, 32.019728810836 ], [ 118.789850160656442, 32.019768809982622 ], [ 118.789900200733769, 32.019928920783116 ], [ 118.789950239911718, 32.020089080146988 ], [ 118.790000279989044, 32.020229160347526 ], [ 118.790050320066257, 32.020349270202701 ], [ 118.790080379905703, 32.02037933004209 ], [ 118.790130419982916, 32.02037933004209 ], [ 118.790190540561071, 32.020359350703529 ], [ 118.790320500690655, 32.020319430697214 ], [ 118.790500680761852, 32.020259489983516 ], [ 118.790570880042196, 32.020249590246465 ], [ 118.790620920119409, 32.020219670701294 ], [ 118.790670960196735, 32.020189740364287 ], [ 118.790701020036067, 32.020179800157678 ], [ 118.790761140614222, 32.020189920228688 ], [ 118.790801280055121, 32.020209990398769 ], [ 118.79094150054982, 32.020310210847583 ], [ 118.790971560389266, 32.020410290102859 ], [ 118.790991540627147, 32.020750400210829 ], [ 118.790981460126318, 32.020860380102533 ], [ 118.79094132068542, 32.020960319962853 ], [ 118.790891280608207, 32.021050280046438 ], [ 118.790831160030052, 32.021130200098696 ], [ 118.790731080774776, 32.021170160574513 ], [ 118.790631000620238, 32.021180100781066 ], [ 118.790170740187591, 32.021149820607775 ], [ 118.789630380737549, 32.021159450548282 ], [ 118.789560360422342, 32.021129390708893 ], [ 118.789520220082181, 32.021079350631567 ], [ 118.789510140480616, 32.021029310554297 ], [ 118.789500240743564, 32.020979270477028 ], [ 118.789510140480616, 32.020959290239091 ], [ 118.789550279921514, 32.020919280300575 ], [ 118.789680240051098, 32.020869330155506 ], [ 118.789700220288978, 32.020849310347444 ], [ 118.789720380391259, 32.020829330109564 ], [ 118.789730280128424, 32.020809350770946 ], [ 118.789760339967756, 32.020739330455797 ], [ 118.789790400706465, 32.020709310186589 ], [ 118.789800300443517, 32.020689290378527 ], [ 118.789850340520843, 32.020659320471339 ], [ 118.789870320758723, 32.020629300202074 ], [ 118.789880400360289, 32.020599290724761 ], [ 118.789880400360289, 32.020569270455496 ], [ 118.789870320758723, 32.020539260078863 ], [ 118.789860240257894, 32.020519230378227 ], [ 118.789820280681511, 32.020479179970209 ], [ 118.789579980032158, 32.020358990075408 ], [ 118.789540020455661, 32.020338920804591 ], [ 118.789479899877506, 32.020288880727321 ], [ 118.789459920539002, 32.020268850127366 ], [ 118.789419960063128, 32.020198790242034 ], [ 118.789409880461676, 32.020158740733336 ], [ 118.78937982062223, 32.020048670010169 ], [ 118.78935984038435, 32.019958619994384 ], [ 118.78935984038435, 32.019928610517013 ], [ 118.78937982062223, 32.019888600578497 ], [ 118.789389720359395, 32.019868580770435 ], [ 118.789429860699556, 32.019838609963927 ], [ 118.789449840038174, 32.019828570831919 ], [ 118.789499880115386, 32.019788610356159 ], [ 118.789529939954832, 32.019758599979468 ], [ 118.789529760090431, 32.01969857023289 ], [ 118.789529760090431, 32.019518480093836 ], [ 118.788999480241841, 32.019978380797681 ], [ 118.789079580158614, 32.020038450114441 ], [ 118.789149600473706, 32.020078549985158 ], [ 118.789219800653314, 32.020088580123911 ], [ 118.789259760229811, 32.020108610723867 ], [ 118.789289820069257, 32.020178670609198 ], [ 118.789299900569972, 32.020268760195165 ], [ 118.789319879908589, 32.020328790841063 ], [ 118.789299900569972, 32.020378790448888 ], [ 118.789259940094212, 32.02041879049483 ], [ 118.789209900016886, 32.020448810764037 ], [ 118.789119720498775, 32.020498760009843 ], [ 118.789009740607071, 32.020538720485604 ], [ 118.78896978013131, 32.020578720531603 ], [ 118.788959700529858, 32.020598700769483 ], [ 118.788939720291864, 32.020658730516061 ], [ 118.788939720291864, 32.020688750785268 ], [ 118.788959700529858, 32.020788830040544 ], [ 118.788979860632139, 32.020828830086487 ], [ 118.789009740607071, 32.020888910195083 ], [ 118.789049880047969, 32.020928960603101 ], [ 118.789129979964628, 32.020969010111799 ], [ 118.78927002059504, 32.020999160782708 ], [ 118.789300080434373, 32.02101918059077 ], [ 118.789300080434373, 32.02103916082865 ], [ 118.789280100196493, 32.021079170767166 ], [ 118.78925004035716, 32.021119170813108 ], [ 118.78923006011928, 32.021139200513744 ], [ 118.789200000279834, 32.021139150151726 ], [ 118.789119900363175, 32.021109090312336 ], [ 118.789039800446517, 32.021069040803638 ], [ 118.788989760369191, 32.02103898006493 ], [ 118.788909840316933, 32.020998890086787 ], [ 118.788849720638154, 32.020938809978134 ], [ 118.78873974074645, 32.021008790723158 ], [ 118.788759720085068, 32.021068860039918 ], [ 118.788799680560828, 32.021118900117187 ], [ 118.788849720638154, 32.021148960855896 ], [ 118.788989940233591, 32.021199050395921 ], [ 118.789090020388244, 32.021239140374064 ], [ 118.789170120304902, 32.021289230813409 ], [ 118.78923006011928, 32.02133931046086 ], [ 118.789270200459441, 32.021419370807394 ], [ 118.789340220774648, 32.021649540593899 ], [ 118.789380360215546, 32.021719610371747 ], [ 118.78963056060195, 32.021939880421201 ], [ 118.789740720358054, 32.022090050115764 ], [ 118.789780679934438, 32.022170100569724 ], [ 118.789900920191371, 32.022380300010866 ], [ 118.79000100034591, 32.022510440004851 ], [ 118.790081100262682, 32.022560520551622 ], [ 118.790261100469479, 32.022590670323211 ], [ 118.79051129995662, 32.022590850187612 ], [ 118.791011700729428, 32.022601160015597 ], [ 118.791191879901362, 32.022571280040609 ], [ 118.791331920531775, 32.022441270448326 ], [ 118.791392040210553, 32.02230132064949 ], [ 118.791422100049886, 32.022001310412179 ], [ 118.791432180550714, 32.021891330520532 ], [ 118.791482220628041, 32.021751380721696 ], [ 118.791552419908271, 32.021671460669438 ], [ 118.791853020100802, 32.021551940769484 ], [ 118.791882900075848, 32.021531960531604 ], [ 118.791903060178129, 32.021492000055787 ], [ 118.791903060178129, 32.021451990117328 ], [ 118.791592560248546, 32.020351290080043 ], [ 118.791392399939355, 32.019640830160256 ], [ 118.791252180343918, 32.01921050006456 ], [ 118.791061920671154, 32.018480060806212 ] ] ] } },
{ "type": "Feature", "properties": { "area_ha": 3.510981932245707 }, "geometry": { "type": "Polygon", "coordinates": [ [ [ 118.788849720638154, 32.020938809978134 ], [ 118.788799680560828, 32.020838730722915 ], [ 118.788759540220667, 32.020678620821741 ], [ 118.788769439957719, 32.020118330596517 ], [ 118.788739380118386, 32.019968210364652 ], [ 118.788719399880506, 32.019908180618074 ], [ 118.788669179938779, 32.019778080194271 ], [ 118.788659280201728, 32.019728040117002 ], [ 118.788669179938779, 32.019698030639631 ], [ 118.788689160176659, 32.019668010370424 ], [ 118.78872930051682, 32.019668060732442 ], [ 118.788779340594147, 32.019668060732442 ], [ 118.788819300170644, 32.01968813000326 ], [ 118.788879420748685, 32.019718190741969 ], [ 118.788899400087303, 32.019768230819238 ], [ 118.788919380325183, 32.019838250235125 ], [ 118.788949440164629, 32.019918300689085 ], [ 118.788999480241841, 32.019978380797681 ], [ 118.789529760090431, 32.019518480093836 ], [ 118.789519680488979, 32.019428430078051 ], [ 118.789499700250985, 32.019258290038124 ], [ 118.789429679935893, 32.019058130628252 ], [ 118.789389540494994, 32.018968080612467 ], [ 118.789379459994166, 32.018928030204506 ], [ 118.789369560257114, 32.018898020727136 ], [ 118.789379459994166, 32.018868000457928 ], [ 118.789419600334327, 32.01885801078862 ], [ 118.789509599988151, 32.01882809034413 ], [ 118.789589699904809, 32.018808110106249 ], [ 118.789639739982022, 32.018798120436941 ], [ 118.789699680695776, 32.01880820003845 ], [ 118.789749720773102, 32.018848250446467 ], [ 118.789889760504138, 32.018498190239313 ], [ 118.789849800028264, 32.018398110084775 ], [ 118.789769700111606, 32.01828795032867 ], [ 118.789699499931999, 32.018227880112647 ], [ 118.789599420676836, 32.018137740164605 ], [ 118.78952940036163, 32.018107680325215 ], [ 118.789459380046424, 32.018037570077865 ], [ 118.789429320206978, 32.017997570031866 ], [ 118.789419240605525, 32.017947530853917 ], [ 118.789429320206978, 32.017877460176692 ], [ 118.789439219944143, 32.017857480838131 ], [ 118.789499340522184, 32.017837500600251 ], [ 118.789950060047317, 32.017748130471887 ], [ 118.790040240464805, 32.017758300005596 ], [ 118.790080200041302, 32.017788360744305 ], [ 118.790140320619344, 32.017848480423083 ], [ 118.790240580638397, 32.01796863074776 ], [ 118.790310600054227, 32.018118800442323 ], [ 118.790370720632268, 32.018318910389439 ], [ 118.790390699970885, 32.018428980213343 ], [ 118.790410680208765, 32.018589050544279 ], [ 118.791061920671154, 32.018480060806212 ], [ 118.790881740599957, 32.017809650395122 ], [ 118.790841600259682, 32.017789580224985 ], [ 118.79079156018247, 32.017779500623533 ], [ 118.790741520105144, 32.017789440830086 ], [ 118.790591220008878, 32.017829180072681 ], [ 118.790460900150492, 32.017818960176896 ], [ 118.790350740394388, 32.017788810405307 ], [ 118.790240580638397, 32.017698590417638 ], [ 118.790120340381463, 32.01753839058432 ], [ 118.790060220702685, 32.017408250590336 ], [ 118.790030159963976, 32.017378190750946 ], [ 118.78998011988665, 32.017368110250118 ], [ 118.789939980445752, 32.017378050456728 ], [ 118.789699680695776, 32.0174977106509 ], [ 118.789299180213106, 32.017717310705393 ], [ 118.788908940095553, 32.017897170617971 ], [ 118.788528600614541, 32.018117040469122 ], [ 118.788398640484957, 32.018247050061348 ], [ 118.788288660593253, 32.018377050660433 ], [ 118.788228540015211, 32.018477039983452 ], [ 118.788168600200834, 32.018587070237174 ], [ 118.788138540361388, 32.01870713062965 ], [ 118.788138540361388, 32.018847210830188 ], [ 118.788188760303115, 32.019347520771532 ], [ 118.788208920405395, 32.019507630672649 ], [ 118.788258960482722, 32.019607710827245 ], [ 118.788368940374312, 32.01965780036727 ], [ 118.78842906005309, 32.019687860206659 ], [ 118.788479100130417, 32.019737900283928 ], [ 118.78859934038735, 32.0199581307632 ], [ 118.788669360702443, 32.020198290218957 ], [ 118.788679440304008, 32.020288340234742 ], [ 118.788659460066128, 32.020438410104589 ], [ 118.788659460066128, 32.020568510528392 ], [ 118.788679620168409, 32.020798640744715 ], [ 118.788729660245735, 32.020978770453951 ], [ 118.78873974074645, 32.021008790723158 ], [ 118.788849720638154, 32.020938809978134 ] ] ] } },
{ "type": "Feature", "properties": { "area_ha": 1.640298864975106 }, "geometry": { "type": "Polygon", "coordinates": [ [ [ 118.791723240734996, 32.016930840086275 ], [ 118.791643139919074, 32.016930710583893 ], [ 118.791332639989378, 32.016960230830023 ], [ 118.791272520310599, 32.01698012023644 ], [ 118.791252540072719, 32.017010090143572 ], [ 118.791322560387925, 32.017330260483163 ], [ 118.791402660304584, 32.017700480792598 ], [ 118.791442619881082, 32.017870580363024 ], [ 118.791502740459123, 32.01807069031014 ], [ 118.791552780536449, 32.018310810195771 ], [ 118.791723059971332, 32.018901210622403 ], [ 118.791893340305478, 32.019471590341652 ], [ 118.791933299881975, 32.01951164074967 ], [ 118.791993420460017, 32.019511770252052 ], [ 118.792584540344365, 32.019392700013157 ], [ 118.791903600670707, 32.017461210766328 ], [ 118.791723240734996, 32.016930840086275 ] ] ] } },
{ "type": "Feature", "properties": { "area_ha": 3.8545103617649525 }, "geometry": { "type": "Polygon", "coordinates": [ [ [ 118.789520399946582, 32.009775930115154 ], [ 118.789259940094212, 32.009705510500964 ], [ 118.789209720152485, 32.009735430046135 ], [ 118.789189739914605, 32.009765400852643 ], [ 118.78933986014647, 32.010835860286761 ], [ 118.789349940647298, 32.010975900017797 ], [ 118.789580159896559, 32.01170639053754 ], [ 118.790000820481509, 32.013227390531711 ], [ 118.790451360142242, 32.014818410841031 ], [ 118.790481419981575, 32.01484847068042 ], [ 118.790511480720284, 32.01487848015779 ], [ 118.790571600399062, 32.014898600689946 ], [ 118.791372960194053, 32.015049930509917 ], [ 118.791262800437948, 32.014689660299609 ], [ 118.790591940365857, 32.012708220008392 ], [ 118.789920900429252, 32.010646730162534 ], [ 118.789690680280728, 32.009966240149936 ], [ 118.789520399946582, 32.009775930115154 ] ] ] } },
{ "type": "Feature", "properties": { "area_ha": 0.6717260118302889 }, "geometry": { "type": "Polygon", "coordinates": [ [ [ 118.778200199879393, 32.01400809020123 ], [ 118.778160240302896, 32.013998060062477 ], [ 118.777819860398267, 32.014097870420414 ], [ 118.777419720543776, 32.01422769025578 ], [ 118.777379760067902, 32.01424767049366 ], [ 118.777359599965621, 32.014267700194239 ], [ 118.777349700228569, 32.014307700240238 ], [ 118.777500000324835, 32.01483812038299 ], [ 118.777509900061887, 32.014878120428989 ], [ 118.777550040402161, 32.014898150129568 ], [ 118.777609980216425, 32.014898190599069 ], [ 118.777800239889189, 32.014898329993969 ], [ 118.778190480006742, 32.014878570089991 ], [ 118.778230440482503, 32.01485859075143 ], [ 118.778250420720383, 32.01482858037474 ], [ 118.778250420720383, 32.014788570436224 ], [ 118.778220180117273, 32.014038110470494 ], [ 118.778200199879393, 32.01400809020123 ] ] ] } },
{ "type": "Feature", "properties": { "area_ha": 0.7283887123978231 }, "geometry": { "type": "Polygon", "coordinates": [ [ [ 118.795278600726874, 32.025398130719225 ], [ 118.795228560649662, 32.025238020818051 ], [ 118.794938040058582, 32.02525755049561 ], [ 118.79473752002059, 32.025287250606198 ], [ 118.794597300425153, 32.025327030318238 ], [ 118.794477060168219, 32.025406860438295 ], [ 118.794396960251561, 32.02549673058968 ], [ 118.794326760071954, 32.025576650641938 ], [ 118.794236580553843, 32.025626510854863 ], [ 118.794126419898475, 32.025656340467776 ], [ 118.794016260142371, 32.025676190304011 ], [ 118.793575440354402, 32.02575548083081 ], [ 118.793254859923877, 32.025854970130808 ], [ 118.79313462056632, 32.025914820012986 ], [ 118.793064420386713, 32.02598471082581 ], [ 118.793044440148833, 32.02606467044825 ], [ 118.793054520649662, 32.026114710525519 ], [ 118.794487140669048, 32.02581695039197 ], [ 118.795128300630608, 32.025667950715388 ], [ 118.795268520226045, 32.025598160626657 ], [ 118.795278600726874, 32.025398130719225 ] ] ] } },
{ "type": "Feature", "properties": { "area_ha": 0.73931416609929879 }, "geometry": { "type": "Polygon", "coordinates": [ [ [ 118.794427020091007, 32.02481669023814 ], [ 118.794367080276629, 32.024796570605304 ], [ 118.794326939936354, 32.024816510373682 ], [ 118.794286800495456, 32.0248564708495 ], [ 118.794216780180363, 32.024976350478255 ], [ 118.794156660501585, 32.025046279961884 ], [ 118.79409653992343, 32.025076200406374 ], [ 118.794016260142371, 32.025086060573301 ], [ 118.793645640533896, 32.02515549003391 ], [ 118.793074680751943, 32.025224570557555 ], [ 118.792964340232174, 32.025244410501216 ], [ 118.792884240315516, 32.025304260383336 ], [ 118.792864260077636, 32.025344270321852 ], [ 118.792864260077636, 32.025444260544248 ], [ 118.792884240315516, 32.025574350176157 ], [ 118.792954440495123, 32.025664440661444 ], [ 118.793074499988279, 32.025704670034543 ], [ 118.793284920662586, 32.025685010854602 ], [ 118.793545380514956, 32.025615390737755 ], [ 118.793966220065045, 32.02555608044878 ], [ 118.794156480637184, 32.025516350199439 ], [ 118.794216600315963, 32.025446460285991 ], [ 118.794246660155295, 32.025396470570684 ], [ 118.794326939936354, 32.025256610704048 ], [ 118.794366900412228, 32.02515662048171 ], [ 118.794507300771329, 32.0248968306243 ], [ 118.79447724003262, 32.02483676040822 ], [ 118.794427020091007, 32.02481669023814 ] ] ] } },
{ "type": "Feature", "properties": { "area_ha": 1.6490250096536707 }, "geometry": { "type": "Polygon", "coordinates": [ [ [ 118.793265300153507, 32.022824400525735 ], [ 118.793235240314175, 32.022694350463951 ], [ 118.793004840301251, 32.022774000719608 ], [ 118.792724400211, 32.022843570474436 ], [ 118.792644120429827, 32.022943470764631 ], [ 118.792644120429827, 32.023113480402856 ], [ 118.792904400417797, 32.024144120554752 ], [ 118.792954440495123, 32.02445426075559 ], [ 118.792874340578464, 32.024534130445829 ], [ 118.792734120083651, 32.024613920096385 ], [ 118.792663919904044, 32.024743830763214 ], [ 118.792734120083651, 32.024973960080217 ], [ 118.792864260077636, 32.024974190306693 ], [ 118.793234880585374, 32.024974770369397 ], [ 118.793415240520972, 32.024965050496746 ], [ 118.793535479878528, 32.024955240691838 ], [ 118.793645640533896, 32.024915420510297 ], [ 118.793745900552949, 32.024845580059548 ], [ 118.793806020231727, 32.024775650575862 ], [ 118.793795940630162, 32.024715620829284 ], [ 118.793775960392281, 32.024645600514077 ], [ 118.79373582005212, 32.024585520405481 ], [ 118.79364582039841, 32.024495339987993 ], [ 118.793585700719518, 32.024415240071335 ], [ 118.793565540617237, 32.024365199994008 ], [ 118.793545560379357, 32.024255130170161 ], [ 118.793265300153507, 32.022824400525735 ] ] ] } },
{ "type": "Feature", "properties": { "area_ha": 0.23171948316320776 }, "geometry": { "type": "Polygon", "coordinates": [ [ [ 118.769533958525471, 32.035060604163618 ], [ 118.769439960485897, 32.034934220637808 ], [ 118.769299920754747, 32.035004150121495 ], [ 118.768869720161547, 32.035254030349279 ], [ 118.768779540643322, 32.035324010194984 ], [ 118.768889700399427, 32.035494150234911 ], [ 118.76899550114149, 32.035640632709089 ], [ 118.769037562433596, 32.035611604392102 ], [ 118.769533958525471, 32.035060604163618 ] ] ] } },
{ "type": "Feature", "properties": { "area_ha": 0.96141211414230054 }, "geometry": { "type": "Polygon", "coordinates": [ [ [ 118.780214040045962, 32.022203990621733 ], [ 118.780153920367184, 32.022203940259715 ], [ 118.779323400054977, 32.022453560583415 ], [ 118.779273359977651, 32.022473540821295 ], [ 118.779243300138205, 32.022513539967974 ], [ 118.779243300138205, 32.022553550805753 ], [ 118.779253380639034, 32.02260358998376 ], [ 118.779533820729284, 32.023534280382762 ], [ 118.779573960170183, 32.02357433079078 ], [ 118.779624000247509, 32.02359440006154 ], [ 118.779674040324721, 32.023584410392289 ], [ 118.779864120133084, 32.023534500716664 ], [ 118.779904080608844, 32.023514520478784 ], [ 118.77993414044829, 32.023474520432842 ], [ 118.77993414044829, 32.023434510494326 ], [ 118.779833880429351, 32.023024200206748 ], [ 118.779833880429351, 32.022984200160749 ], [ 118.779863940268683, 32.022944190222233 ], [ 118.779903900744443, 32.022924170414171 ], [ 118.780354260540776, 32.022794390149045 ], [ 118.780394220117273, 32.022774410810484 ], [ 118.780434180593033, 32.022744440003976 ], [ 118.780444260194486, 32.02270443006546 ], [ 118.780304040599049, 32.022254070269184 ], [ 118.780264080123288, 32.022214020760487 ], [ 118.780214040045962, 32.022203990621733 ] ] ] } },
{ "type": "Feature", "properties": { "area_ha": 4.8793792280321009 }, "geometry": { "type": "Polygon", "coordinates": [ [ [ 118.768924440310684, 32.016583580367978 ], [ 118.768864320631906, 32.016573500766526 ], [ 118.768273920205274, 32.01659316084573 ], [ 118.767863700749217, 32.016642980589154 ], [ 118.767463559995349, 32.016692880372204 ], [ 118.767413519918023, 32.016712910072783 ], [ 118.767373560341639, 32.016742879979972 ], [ 118.767373560341639, 32.016772890356663 ], [ 118.767744360713777, 32.019334340307637 ], [ 118.767754260450829, 32.019384380384906 ], [ 118.767784320290161, 32.019414440224296 ], [ 118.767824460630436, 32.019454440270238 ], [ 118.767874500707649, 32.019474510440375 ], [ 118.767944520123592, 32.019504570279764 ], [ 118.768394879919811, 32.019454850361114 ], [ 118.768514940312343, 32.019404900216045 ], [ 118.768664880679808, 32.019374970778358 ], [ 118.769255280207062, 32.019315300760582 ], [ 118.769305320284388, 32.019295320522701 ], [ 118.769335380123721, 32.019275340284764 ], [ 118.769355360361601, 32.019235340238822 ], [ 118.769365439963167, 32.019205319969615 ], [ 118.769245020741209, 32.017874490615327 ], [ 118.769184720298654, 32.01748425049783 ], [ 118.769144760722156, 32.017334130265965 ], [ 118.769014439964508, 32.016733700599843 ], [ 118.76899446062589, 32.016643650584058 ], [ 118.768964399887182, 32.01660360017604 ], [ 118.768924440310684, 32.016583580367978 ] ] ] } }
]
}
