{
"type": "FeatureCollection",
"name": "nj2010lake",
"crs": { "type": "name", "properties": { "name": "urn:ogc:def:crs:OGC:1.3:CRS84" } },
"features": [
{ "type": "Feature", "properties": { "osm_id": "71196993", "code": 8200, "fclass": "water", "name": null, "fclass_cn": "水域", "statement": "该数据由立方数据学社整理，欢迎关注立方数据学社公众号", "area_m2": 3848.4231507945224, "area_ha": 0.38 }, "geometry": { "type": "Polygon", "coordinates": [ [ [ 118.789538599999986, 32.021699 ], [ 118.7895118, 32.0215853 ], [ 118.789370600000026, 32.021626600000033 ], [ 118.789056200000047, 32.021649399999966 ], [ 118.7888386, 32.02175 ], [ 118.788688, 32.021885300000037 ], [ 118.788450600000033, 32.022030699999988 ], [ 118.7883129, 32.022107699999957 ], [ 118.78822420000003, 32.022232 ], [ 118.788142400000041, 32.022351299999947 ], [ 118.78808650000002, 32.022587200000032 ], [ 118.78805760000003, 32.022774100000035 ], [ 118.7880207, 32.02295 ], [ 118.787958800000013, 32.023071799999975 ], [ 118.787794300000016, 32.023292500000025 ], [ 118.787700499999971, 32.023388100000034 ], [ 118.78757419999998, 32.023416 ], [ 118.787751700000044, 32.023552500000037 ], [ 118.787792, 32.0234832 ], [ 118.787898, 32.023378500000035 ], [ 118.7880389, 32.023141499999952 ], [ 118.788133299999984, 32.023023299999956 ], [ 118.7881325, 32.022897700000051 ], [ 118.788131800000045, 32.022779400000026 ], [ 118.788189900000063, 32.022524499999989 ], [ 118.7882742, 32.0223928 ], [ 118.7883751, 32.022240099999983 ], [ 118.7885457, 32.022158199999957 ], [ 118.78876, 32.0220609 ], [ 118.7887839, 32.022025800000016 ], [ 118.788879100000059, 32.0219181 ], [ 118.789065700000037, 32.021791199999974 ], [ 118.789357600000031, 32.02171670000002 ], [ 118.789460800000057, 32.021754300000026 ], [ 118.789538599999986, 32.021699 ] ] ] } },
{ "type": "Feature", "properties": { "osm_id": "71198318", "code": 8200, "fclass": "water", "name": null, "fclass_cn": "水域", "statement": "该数据由立方数据学社整理，欢迎关注立方数据学社公众号", "area_m2": 13883.485618594445, "area_ha": 1.39 }, "geometry": { "type": "Polygon", "coordinates": [ [ [ 118.786724600000056, 32.022917299999975 ], [ 118.78616, 32.0225365 ], [ 118.785728599999985, 32.022288 ], [ 118.785244200000037, 32.021951800000025 ], [ 118.785084599999976, 32.021803899999959 ], [ 118.78494670000002, 32.021614700000029 ], [ 118.784374800000037, 32.021234199999988 ], [ 118.7837595, 32.020939700000042 ], [ 118.78340080000001, 32.0206836 ], [ 118.7830346, 32.0204755 ], [ 118.782170099999973, 32.020235500000027 ], [ 118.782075400000039, 32.020320300000051 ], [ 118.782879799999989, 32.020642 ], [ 118.783261099999976, 32.0208405 ], [ 118.783653699999974, 32.02111890000004 ], [ 118.7840124, 32.021429399999967 ], [ 118.783902899999987, 32.021599099999975 ], [ 118.784093600000048, 32.021671099999985 ], [ 118.7848123, 32.022133400000044 ], [ 118.784848599999989, 32.0221544 ], [ 118.78495540000003, 32.022073399999968 ], [ 118.78510719999997, 32.022044 ], [ 118.785257499999972, 32.022132599999971 ], [ 118.786628399999984, 32.023041799999987 ], [ 118.7866834, 32.022970600000036 ], [ 118.786724600000056, 32.022917299999975 ] ] ] } },
{ "type": "Feature", "properties": { "osm_id": "70957768", "code": 8200, "fclass": "water", "name": null, "fclass_cn": "水域", "statement": "该数据由立方数据学社整理，欢迎关注立方数据学社公众号", "area_m2": 37910.82368905373, "area_ha": 3.79 }, "geometry": { "type": "Polygon", "coordinates": [ [ [ 118.7895118, 32.0215853 ], [ 118.789538599999986, 32.021699 ], [ 118.7896673, 32.021776299999985 ], [ 118.789672699999969, 32.021699 ], [ 118.789769299999989, 32.021503399999965 ], [ 118.789962399999979, 32.021307800000031 ], [ 118.790434500000046, 32.0211441 ], [ 118.790627600000036, 32.021162299999979 ], [ 118.79072410000002, 32.021148700000012 ], [ 118.790836800000022, 32.0210668 ], [ 118.790836800000022, 32.020903 ], [ 118.790777800000043, 32.020593800000015 ], [ 118.790922600000016, 32.0204528 ], [ 118.791164, 32.0204391 ], [ 118.7913303, 32.020425500000044 ], [ 118.791367900000012, 32.02033 ], [ 118.791367900000012, 32.020157100000048 ], [ 118.791223, 32.0201844 ], [ 118.791131799999988, 32.020261699999985 ], [ 118.79091190000004, 32.020343600000025 ], [ 118.790788500000019, 32.020325400000019 ], [ 118.79062220000003, 32.020334499999976 ], [ 118.790407600000037, 32.0204164 ], [ 118.790166199999959, 32.020539200000044 ], [ 118.789957, 32.020216299999966 ], [ 118.789865799999973, 32.019957 ], [ 118.78992479999998, 32.019625 ], [ 118.790026799999978, 32.0193976 ], [ 118.79014479999995, 32.0192111 ], [ 118.790273499999969, 32.019124699999963 ], [ 118.790380799999951, 32.0191338 ], [ 118.790514900000048, 32.019138300000023 ], [ 118.790343300000046, 32.018615300000022 ], [ 118.79041839999995, 32.018456099999987 ], [ 118.790284200000045, 32.018051299999968 ], [ 118.790177, 32.017887500000022 ], [ 118.790069699999961, 32.017878399999972 ], [ 118.789796099999975, 32.017969400000041 ], [ 118.7896673, 32.018024 ], [ 118.789544, 32.018024 ], [ 118.7892865, 32.017946600000023 ], [ 118.789265, 32.0180376 ], [ 118.789409799999973, 32.018142200000035 ], [ 118.789565399999987, 32.018265 ], [ 118.78974239999998, 32.018392400000046 ], [ 118.789860499999989, 32.01856520000004 ], [ 118.789855099999969, 32.018678900000019 ], [ 118.789962399999979, 32.018938199999987 ], [ 118.789898, 32.019111 ], [ 118.78978, 32.019115600000021 ], [ 118.789699499999983, 32.019006400000045 ], [ 118.789517099999983, 32.018874499999967 ], [ 118.789361600000021, 32.018910900000037 ], [ 118.789291799999987, 32.018951799999961 ], [ 118.789447400000014, 32.019534 ], [ 118.789442, 32.0198388 ], [ 118.789442, 32.0200161 ], [ 118.7892757, 32.0201298 ], [ 118.789147, 32.020179899999967 ], [ 118.789039700000018, 32.020107099999983 ], [ 118.788873400000028, 32.019925200000039 ], [ 118.788696400000035, 32.019779599999978 ], [ 118.788642700000025, 32.0198251 ], [ 118.788744700000024, 32.020175300000027 ], [ 118.788792900000033, 32.0204937 ], [ 118.788733900000025, 32.020734799999964 ], [ 118.788755400000014, 32.020994 ], [ 118.788905600000021, 32.021094100000028 ], [ 118.789222100000018, 32.021180499999986 ], [ 118.789517099999983, 32.021180499999979 ], [ 118.789678099999989, 32.021194100000045 ], [ 118.7896673, 32.021412399999974 ], [ 118.7895118, 32.0215853 ] ] ] } },
{ "type": "Feature", "properties": { "osm_id": "71194661", "code": 8200, "fclass": "water", "name": null, "fclass_cn": "水域", "statement": "该数据由立方数据学社整理，欢迎关注立方数据学社公众号", "area_m2": 2040.1079058137623, "area_ha": 0.2 }, "geometry": { "type": "Polygon", "coordinates": [ [ [ 118.768343500000015, 32.01816489999996 ], [ 118.768161200000023, 32.01816489999996 ], [ 118.768150400000025, 32.018292300000013 ], [ 118.768193300000021, 32.018428700000023 ], [ 118.768129, 32.01858340000004 ], [ 118.768129, 32.018719800000035 ], [ 118.768268400000011, 32.018792600000019 ], [ 118.768493700000022, 32.018810800000026 ], [ 118.768536700000013, 32.018665199999965 ], [ 118.7684616, 32.018401399999988 ], [ 118.768343500000015, 32.01816489999996 ] ] ] } },
{ "type": "Feature", "properties": { "osm_id": "108255840", "code": 8200, "fclass": "water", "name": null, "fclass_cn": "水域", "statement": "该数据由立方数据学社整理，欢迎关注立方数据学社公众号", "area_m2": 18874.231960519555, "area_ha": 1.89 }, "geometry": { "type": "Polygon", "coordinates": [ [ [ 118.782170099999973, 32.020235500000027 ], [ 118.781901400000024, 32.020140299999973 ], [ 118.781421200000011, 32.020009499999986 ], [ 118.781187700000032, 32.019917700000029 ], [ 118.780994899999982, 32.019795799999983 ], [ 118.78074789999998, 32.0194214 ], [ 118.780286199999978, 32.018708700000012 ], [ 118.7800375, 32.018295600000023 ], [ 118.779799, 32.017528300000045 ], [ 118.779518200000012, 32.016368099999966 ], [ 118.7792442, 32.015836 ], [ 118.779083500000013, 32.01563369999996 ], [ 118.7788332, 32.015430099999989 ], [ 118.778631899999951, 32.015326799999961 ], [ 118.778178600000018, 32.0152049 ], [ 118.777814900000024, 32.01519770000003 ], [ 118.777549300000018, 32.015235 ], [ 118.77717890000001, 32.015296699999958 ], [ 118.7765801, 32.015486 ], [ 118.776089600000034, 32.015759900000013 ], [ 118.775732699999963, 32.016118500000012 ], [ 118.775262399999946, 32.016718 ], [ 118.774736399999952, 32.017373400000025 ], [ 118.774301699999967, 32.01799009999997 ], [ 118.7742154, 32.018208099999981 ], [ 118.774029299999981, 32.018783199999959 ], [ 118.773794199999969, 32.019576300000033 ], [ 118.773686599999976, 32.0199968 ], [ 118.7738309, 32.020128499999984 ], [ 118.773993799999985, 32.019255100000017 ], [ 118.774115600000016, 32.018830599999966 ], [ 118.774452199999985, 32.0180088 ], [ 118.77481760000002, 32.017460899999975 ], [ 118.775444199999981, 32.016769300000028 ], [ 118.775889199999966, 32.016136499999988 ], [ 118.776080499999978, 32.015965100000031 ], [ 118.776556600000021, 32.015675 ], [ 118.777031399999942, 32.015501600000043 ], [ 118.7774871, 32.015353500000046 ], [ 118.77779, 32.0152938 ], [ 118.7780979, 32.015322499999975 ], [ 118.778557899999967, 32.015421499999981 ], [ 118.778855599999986, 32.015576400000015 ], [ 118.7790197, 32.015724099999979 ], [ 118.779205800000014, 32.015978 ], [ 118.779297100000036, 32.016188799999973 ], [ 118.779413799999986, 32.016485700000025 ], [ 118.779496700000024, 32.01679690000001 ], [ 118.779664200000013, 32.017450900000036 ], [ 118.779901, 32.018203799999981 ], [ 118.7799923, 32.018419 ], [ 118.780237600000049, 32.0188449 ], [ 118.780616500000022, 32.019539099999982 ], [ 118.7808212, 32.019883300000025 ], [ 118.781173, 32.020042399999973 ], [ 118.781528199999968, 32.020145699999986 ], [ 118.782075400000039, 32.020320300000051 ], [ 118.782170099999973, 32.020235500000027 ] ] ] } },
{ "type": "Feature", "properties": { "osm_id": "8002209", "code": 8202, "fclass": "river", "name": null, "fclass_cn": "河/江", "statement": "该数据由立方数据学社整理，欢迎关注立方数据学社公众号", "area_m2": 81462.502665471053, "area_ha": 8.15 }, "geometry": { "type": "Polygon", "coordinates": [ [ [ 118.7700503, 32.015127800000023 ], [ 118.770135300000035, 32.014783300000019 ], [ 118.77021790000002, 32.014516100000044 ], [ 118.768637500000011, 32.014272400000038 ], [ 118.768064899999956, 32.014245799999962 ], [ 118.767614399999985, 32.0142344 ], [ 118.767413900000022, 32.014145500000019 ], [ 118.767213600000048, 32.0141495 ], [ 118.7669007, 32.0142483 ], [ 118.7667867, 32.01414650000001 ], [ 118.7663295, 32.014302799999975 ], [ 118.766045700000063, 32.014400499999979 ], [ 118.765906199999961, 32.0144406 ], [ 118.765764300000029, 32.014503300000037 ], [ 118.765651500000033, 32.014584500000012 ], [ 118.765375, 32.01466779999997 ], [ 118.764332, 32.014941399999969 ], [ 118.764315, 32.014992800000037 ], [ 118.764007, 32.015089499999959 ], [ 118.7638348, 32.014966099999953 ], [ 118.763669800000031, 32.014999 ], [ 118.7632284, 32.0151758 ], [ 118.762995500000017, 32.0153424 ], [ 118.762774800000059, 32.015426699999985 ], [ 118.762597700000043, 32.015428799999974 ], [ 118.76236, 32.015461700000024 ], [ 118.762102900000045, 32.015556300000043 ], [ 118.761261200000035, 32.015648899999974 ], [ 118.760094499999965, 32.015918299999974 ], [ 118.7597185, 32.0160335 ], [ 118.75952039798301, 32.016072351697154 ], [ 118.759561343989844, 32.016248182537439 ], [ 118.759794199999988, 32.016247799999967 ], [ 118.760769899999985, 32.016925900000039 ], [ 118.761476199999976, 32.016674600000023 ], [ 118.7617169, 32.0163845 ], [ 118.76239350000003, 32.016188600000049 ], [ 118.762462400000018, 32.016125200000033 ], [ 118.762561199999965, 32.016107399999989 ], [ 118.762633, 32.016125200000033 ], [ 118.763953, 32.015764799999971 ], [ 118.76558439999998, 32.0153003 ], [ 118.7667727, 32.014980600000023 ], [ 118.767248600000016, 32.0149323 ], [ 118.7678862, 32.014886599999947 ], [ 118.768784199999956, 32.014962799999964 ], [ 118.7700503, 32.015127800000023 ] ] ] } },
{ "type": "Feature", "properties": { "osm_id": "108257943", "code": 8200, "fclass": "water", "name": null, "fclass_cn": "水域", "statement": "该数据由立方数据学社整理，欢迎关注立方数据学社公众号", "area_m2": 65621.259573435455, "area_ha": 6.56 }, "geometry": { "type": "Polygon", "coordinates": [ [ [ 118.793697400000013, 32.023442 ], [ 118.793575300000029, 32.022729900000016 ], [ 118.793379900000019, 32.021480799999964 ], [ 118.793213400000042, 32.020715 ], [ 118.793069300000013, 32.019933 ], [ 118.792901183053218, 32.019006579121296 ], [ 118.792797696561578, 32.018651134135851 ], [ 118.792695563942004, 32.01828415210425 ], [ 118.792577107460133, 32.017815299690639 ], [ 118.79257355865505, 32.017793025780286 ], [ 118.792515199999983, 32.017747 ], [ 118.792323, 32.017057199999968 ], [ 118.792060400000011, 32.0166499 ], [ 118.791945099999964, 32.0161882 ], [ 118.791964299999961, 32.0159574 ], [ 118.7919678, 32.015877399999965 ], [ 118.791975, 32.0156234 ], [ 118.7919348, 32.0152757 ], [ 118.79192995264853, 32.014957181287265 ], [ 118.791918553226054, 32.014932392493144 ], [ 118.791797923539193, 32.014511151156476 ], [ 118.791768099741546, 32.014092927520132 ], [ 118.791673057923035, 32.013571208587017 ], [ 118.791525035647169, 32.013137135826867 ], [ 118.791386625031379, 32.012798749815758 ], [ 118.791164496133362, 32.012302609162042 ], [ 118.791001690612674, 32.011885926022757 ], [ 118.790817659516165, 32.011474497685938 ], [ 118.790715539636125, 32.011107515102672 ], [ 118.790650512610597, 32.010966968011473 ], [ 118.79002669999997, 32.011082699999989 ], [ 118.790445199999965, 32.0122433 ], [ 118.790915100000021, 32.013485300000013 ], [ 118.7911895, 32.014221199999959 ], [ 118.7913302, 32.0149891 ], [ 118.7914056, 32.015646400000037 ], [ 118.791572, 32.015626100000034 ], [ 118.791616300000044, 32.015895799999974 ], [ 118.7916715, 32.0161322 ], [ 118.791623500000014, 32.016711 ], [ 118.7919518, 32.017618599999963 ], [ 118.792310800000052, 32.0185647 ], [ 118.792640100000014, 32.019639700000049 ], [ 118.792755399999962, 32.0200226 ], [ 118.792781, 32.0204489 ], [ 118.792893099999972, 32.021228200000024 ], [ 118.793146099999959, 32.022222100000015 ], [ 118.793271, 32.0228222 ], [ 118.793370499999966, 32.023503900000023 ], [ 118.793489400000041, 32.02348140000003 ], [ 118.793697400000013, 32.023442 ] ] ] } },
{ "type": "Feature", "properties": { "osm_id": "8002650", "code": 8202, "fclass": "river", "name": null, "fclass_cn": "河/江", "statement": "该数据由立方数据学社整理，欢迎关注立方数据学社公众号", "area_m2": 976.33451501787658, "area_ha": 0.1 }, "geometry": { "type": "Polygon", "coordinates": [ [ [ 118.79192995264853, 32.014957181287265 ], [ 118.7919348, 32.0152757 ], [ 118.791975, 32.0156234 ], [ 118.7921088, 32.015614699999979 ], [ 118.792235225757622, 32.015624717341424 ], [ 118.792224686647586, 32.015580335392563 ], [ 118.792052162598949, 32.015222934864717 ], [ 118.79192995264853, 32.014957181287265 ] ] ] } },
{ "type": "Feature", "properties": { "osm_id": "225893107", "code": 8200, "fclass": "water", "name": null, "fclass_cn": "水域", "statement": "该数据由立方数据学社整理，欢迎关注立方数据学社公众号", "area_m2": 101080.60266862011, "area_ha": 10.11 }, "geometry": { "type": "Polygon", "coordinates": [ [ [ 118.784835400000048, 32.009754499999964 ], [ 118.784262700000014, 32.0094071 ], [ 118.783991, 32.009545299999964 ], [ 118.7836273, 32.009967099999983 ], [ 118.78336819999997, 32.010435 ], [ 118.783142400000045, 32.010913600000038 ], [ 118.782946, 32.0111546 ], [ 118.782661700000034, 32.011324700000031 ], [ 118.782293799999977, 32.011498400000022 ], [ 118.7817253, 32.011753599999984 ], [ 118.781156799999962, 32.011863500000025 ], [ 118.780680299999972, 32.0120124 ], [ 118.780375100000043, 32.011923799999948 ], [ 118.7800365, 32.01186 ], [ 118.778682399999965, 32.012201600000026 ], [ 118.7765187, 32.012823200000035 ], [ 118.77553140000002, 32.0132342 ], [ 118.774301799999989, 32.013760599999969 ], [ 118.773249500000034, 32.014171599999955 ], [ 118.7724634, 32.014409800000038 ], [ 118.771665399999975, 32.014615299999981 ], [ 118.77109190000003, 32.01463539999996 ], [ 118.77021790000002, 32.014516100000044 ], [ 118.770135300000035, 32.014783300000019 ], [ 118.7700503, 32.015127800000023 ], [ 118.7707103, 32.0151812 ], [ 118.771918400000033, 32.015220200000023 ], [ 118.772950900000041, 32.014986300000032 ], [ 118.775225, 32.014093100000032 ], [ 118.775939799999975, 32.013763400000023 ], [ 118.776445599999988, 32.013660600000044 ], [ 118.7765, 32.013582599999978 ], [ 118.777833499999957, 32.013175 ], [ 118.779058299999974, 32.012813500000028 ], [ 118.7803166, 32.012498 ], [ 118.781407600000023, 32.012179 ], [ 118.782448500000015, 32.01191319999996 ], [ 118.783067200000033, 32.011619 ], [ 118.78346430000002, 32.011335400000021 ], [ 118.783836399999984, 32.010888800000039 ], [ 118.784254400000037, 32.010176299999962 ], [ 118.784835400000048, 32.009754499999964 ] ] ] } },
{ "type": "Feature", "properties": { "osm_id": "189261956", "code": 8202, "fclass": "river", "name": null, "fclass_cn": "河/江", "statement": "该数据由立方数据学社整理，欢迎关注立方数据学社公众号", "area_m2": 43508.950328431914, "area_ha": 4.35 }, "geometry": { "type": "Polygon", "coordinates": [ [ [ 118.790650512610597, 32.010966968011473 ], [ 118.790575499367051, 32.010804837065287 ], [ 118.790474743365309, 32.010408097384897 ], [ 118.790346594322017, 32.009998526142994 ], [ 118.790215448733676, 32.009654420276966 ], [ 118.7901178919861, 32.009439565895299 ], [ 118.789804100000026, 32.009119500000011 ], [ 118.78954789999996, 32.009046600000019 ], [ 118.789231, 32.008951200000034 ], [ 118.788837100000052, 32.008894699999978 ], [ 118.788412, 32.008776599999955 ], [ 118.7878404, 32.008826900000045 ], [ 118.7873961, 32.0089047 ], [ 118.786901400000019, 32.0089411 ], [ 118.786323800000019, 32.008953699999971 ], [ 118.785327900000013, 32.0090572 ], [ 118.784902199999976, 32.009166499999985 ], [ 118.784449700000039, 32.009277899999972 ], [ 118.784262700000014, 32.0094071 ], [ 118.784835400000048, 32.009754499999964 ], [ 118.784996699999979, 32.009692800000025 ], [ 118.785167, 32.0096315 ], [ 118.785409600000037, 32.0095906 ], [ 118.785573, 32.0095629 ], [ 118.785977300000027, 32.0095498 ], [ 118.787082, 32.009504499999984 ], [ 118.787728, 32.009478100000017 ], [ 118.788233, 32.009450400000027 ], [ 118.7888755, 32.009421300000028 ], [ 118.788999800000013, 32.009452300000014 ], [ 118.7892412, 32.0095402 ], [ 118.789435199999971, 32.0096808 ], [ 118.789605500000022, 32.00990310000001 ], [ 118.789750600000033, 32.0102648 ], [ 118.789916800000029, 32.010769500000023 ], [ 118.79002669999997, 32.011082699999989 ], [ 118.790650512610597, 32.010966968011473 ] ] ] } },
{ "type": "Feature", "properties": { "osm_id": "148399769", "code": 8202, "fclass": "river", "name": null, "fclass_cn": "河/江", "statement": "该数据由立方数据学社整理，欢迎关注立方数据学社公众号", "area_m2": 8569.4276538124159, "area_ha": 0.86 }, "geometry": { "type": "Polygon", "coordinates": [ [ [ 118.79167019999997, 32.024867599999958 ], [ 118.791173900000032, 32.024839 ], [ 118.790804800000046, 32.024828800000037 ], [ 118.790117199999983, 32.0248263 ], [ 118.7898209, 32.024763699999987 ], [ 118.7895406, 32.0246758 ], [ 118.789134699999963, 32.02445 ], [ 118.788520500000061, 32.024062 ], [ 118.787751700000044, 32.023552500000037 ], [ 118.78757419999998, 32.023416 ], [ 118.787509100000037, 32.023366 ], [ 118.787227, 32.0231686 ], [ 118.786724600000056, 32.022917299999975 ], [ 118.7866834, 32.022970600000036 ], [ 118.786628399999984, 32.023041799999987 ], [ 118.7870182, 32.023239199999978 ], [ 118.787524599999983, 32.02358 ], [ 118.787882900000042, 32.023847899999964 ], [ 118.788083200000017, 32.024007 ], [ 118.7886616, 32.024349099999959 ], [ 118.7891059, 32.024613399999986 ], [ 118.789258299999972, 32.024735300000032 ], [ 118.789302, 32.024865699999971 ], [ 118.789468699999986, 32.024868500000032 ], [ 118.7898028, 32.02487409999997 ], [ 118.7901526, 32.024915899999961 ], [ 118.790671700000061, 32.0249411 ], [ 118.791024400000012, 32.024924300000038 ], [ 118.7913192, 32.024936299999965 ], [ 118.7916629, 32.0249946 ], [ 118.79167019999997, 32.024867599999958 ] ] ] } },
{ "type": "Feature", "properties": { "osm_id": "2001172", "code": 8202, "fclass": "river", "name": null, "fclass_cn": "河/江", "statement": "该数据由立方数据学社整理，欢迎关注立方数据学社公众号", "area_m2": 7067.0513099055361, "area_ha": 0.71 }, "geometry": { "type": "Polygon", "coordinates": [ [ [ 118.792943900000012, 32.025693800000035 ], [ 118.792997199999974, 32.025874499999958 ], [ 118.7931649, 32.025787200000032 ], [ 118.79389649999996, 32.02567259999995 ], [ 118.79411639999995, 32.025649900000033 ], [ 118.794325700000059, 32.0255453 ], [ 118.794454400000035, 32.025381600000031 ], [ 118.794692, 32.025230399999977 ], [ 118.795102500000027, 32.025170900000013 ], [ 118.795226377247772, 32.02516759052714 ], [ 118.795138024619078, 32.024678447406025 ], [ 118.795060600000014, 32.024672099999947 ], [ 118.794754800000021, 32.024640199999972 ], [ 118.794583200000048, 32.024685700000013 ], [ 118.794293500000038, 32.025217799999979 ], [ 118.794229100000038, 32.025386099999963 ], [ 118.794105700000046, 32.025481599999964 ], [ 118.792943900000012, 32.025693800000035 ] ] ] } },
{ "type": "Feature", "properties": { "osm_id": "195101363", "code": 8202, "fclass": "river", "name": null, "fclass_cn": "河/江", "statement": "该数据由立方数据学社整理，欢迎关注立方数据学社公众号", "area_m2": 198380.75523895453, "area_ha": 19.84 }, "geometry": { "type": "Polygon", "coordinates": [ [ [ 118.760769899999985, 32.016925900000039 ], [ 118.759794199999988, 32.016247799999967 ], [ 118.759930900000029, 32.01694 ], [ 118.760639400000017, 32.019214799999958 ], [ 118.761284400000022, 32.021095499999959 ], [ 118.761733799999988, 32.022957199999986 ], [ 118.761785200000048, 32.02304860000001 ], [ 118.76181859999997, 32.023135700000012 ], [ 118.761844299999979, 32.023240199999954 ], [ 118.761844299999979, 32.023316399999963 ], [ 118.761844299999979, 32.023375200000025 ], [ 118.76199579999998, 32.023919500000034 ], [ 118.762286, 32.024825300000018 ], [ 118.762537699999953, 32.0260403 ], [ 118.762614700000029, 32.027257399999989 ], [ 118.762650699999966, 32.027655800000012 ], [ 118.762655799999962, 32.028226300000043 ], [ 118.762540199999975, 32.028931699999966 ], [ 118.76254280000002, 32.028986100000012 ], [ 118.762547899999987, 32.029066700000044 ], [ 118.762540199999975, 32.029132 ], [ 118.762519699999984, 32.0292713 ], [ 118.76249140000003, 32.029323599999969 ], [ 118.762368199999955, 32.030257599999985 ], [ 118.762339900000029, 32.0305058 ], [ 118.762398099999956, 32.0308579 ], [ 118.7625307, 32.031506 ], [ 118.7626596, 32.032192700000039 ], [ 118.762872100000024, 32.032943900000028 ], [ 118.762932, 32.033085600000014 ], [ 118.762955599999984, 32.033164100000036 ], [ 118.7629429, 32.033424199999978 ], [ 118.7629828, 32.0339923 ], [ 118.7629974, 32.034300199999983 ], [ 118.7630083, 32.034423300000036 ], [ 118.763021, 32.03450949999997 ], [ 118.763010099999988, 32.0345634 ], [ 118.762988300000046, 32.034626499999987 ], [ 118.7629847, 32.0347266 ], [ 118.762964700000012, 32.035003700000011 ], [ 118.762975600000033, 32.035102199999983 ], [ 118.762915599999985, 32.0352731 ], [ 118.7627268, 32.035722599999978 ], [ 118.7625488, 32.0363938 ], [ 118.762292800000026, 32.037254299999972 ], [ 118.76228009999997, 32.03738519999996 ], [ 118.762276400000033, 32.037462200000036 ], [ 118.762232800000049, 32.037540699999951 ], [ 118.7622002, 32.037585300000011 ], [ 118.761962299999951, 32.038296499999966 ], [ 118.761917081388418, 32.038489360102439 ], [ 118.761994406939465, 32.038513753568445 ], [ 118.762622584645143, 32.038375744829949 ], [ 118.76276566889041, 32.038334517166092 ], [ 118.762804199999977, 32.038189399999986 ], [ 118.76289720000004, 32.0379415 ], [ 118.763356300000027, 32.036510199999967 ], [ 118.7634711, 32.0360801 ], [ 118.7635678, 32.035611500000023 ], [ 118.763613100000029, 32.035358 ], [ 118.763601, 32.035194199999957 ], [ 118.7636372, 32.035073800000049 ], [ 118.763664400000025, 32.034881799999965 ], [ 118.7637188, 32.03413670000004 ], [ 118.763709700000035, 32.03383969999998 ], [ 118.763658399999969, 32.033396700000019 ], [ 118.763598, 32.032756599999985 ], [ 118.763434900000036, 32.032098499999975 ], [ 118.763274800000019, 32.031693899999986 ], [ 118.763190200000025, 32.03132520000004 ], [ 118.763212500000037, 32.031242600000034 ], [ 118.763111700000039, 32.0312177 ], [ 118.763012, 32.030679900000017 ], [ 118.763154, 32.030613400000021 ], [ 118.763126800000052, 32.03017039999996 ], [ 118.763401300000027, 32.029122600000044 ], [ 118.763578600000031, 32.028273400000032 ], [ 118.763690699999955, 32.028211499999962 ], [ 118.763623800000019, 32.027709 ], [ 118.763386, 32.026082500000037 ], [ 118.763031100000021, 32.0244332 ], [ 118.7627097, 32.023039300000036 ], [ 118.76247530000002, 32.021497800000027 ], [ 118.7623782, 32.021097599999969 ], [ 118.76223760000002, 32.020649 ], [ 118.761845799999989, 32.0196157 ], [ 118.7617651, 32.019641700000022 ], [ 118.761380200000019, 32.0185775 ], [ 118.761017, 32.017729800000026 ], [ 118.760769899999985, 32.016925900000039 ] ] ] } },
{ "type": "Feature", "properties": { "osm_id": "203449865", "code": 8202, "fclass": "river", "name": null, "fclass_cn": "河/江", "statement": "该数据由立方数据学社整理，欢迎关注立方数据学社公众号", "area_m2": 6120.3953875337629, "area_ha": 0.61 }, "geometry": { "type": "Polygon", "coordinates": [ [ [ 118.792997199999974, 32.025874499999958 ], [ 118.792943900000012, 32.025693800000035 ], [ 118.7928802, 32.025634299999986 ], [ 118.792847899999984, 32.025451200000028 ], [ 118.792889500000058, 32.025336799999977 ], [ 118.792688500000025, 32.024939300000035 ], [ 118.7924338, 32.0249013 ], [ 118.791812600000043, 32.024885799999964 ], [ 118.79167019999997, 32.024867599999958 ], [ 118.7916629, 32.0249946 ], [ 118.792222800000033, 32.025068399999974 ], [ 118.7924338, 32.025197399999989 ], [ 118.792550100000014, 32.02540429999997 ], [ 118.792749600000036, 32.02593610000001 ], [ 118.792871599999984, 32.0263 ], [ 118.7929276, 32.0265008 ], [ 118.7929749, 32.0266285 ], [ 118.793035200000034, 32.0268549 ], [ 118.793206, 32.026797699999968 ], [ 118.7931357, 32.026611500000016 ], [ 118.792970600000018, 32.026143 ], [ 118.792936199999986, 32.025949500000038 ], [ 118.792997199999974, 32.025874499999958 ] ] ] } },
{ "type": "Feature", "properties": { "osm_id": "203352831", "code": 8200, "fclass": "water", "name": null, "fclass_cn": "水域", "statement": "该数据由立方数据学社整理，欢迎关注立方数据学社公众号", "area_m2": 2563.2612250881216, "area_ha": 0.26 }, "geometry": { "type": "Polygon", "coordinates": [ [ [ 118.789468699999986, 32.024868500000032 ], [ 118.789302, 32.024865699999971 ], [ 118.789292200000034, 32.025041599999973 ], [ 118.789034099999981, 32.025543899999967 ], [ 118.788797100000011, 32.025982800000044 ], [ 118.788509299999987, 32.026222 ], [ 118.787998700000017, 32.026516200000039 ], [ 118.7880918, 32.0265748 ], [ 118.788389400000028, 32.026379800000022 ], [ 118.78876889999998, 32.026137 ], [ 118.788897300000045, 32.026034200000019 ], [ 118.7889523, 32.02594449999998 ], [ 118.789182199999985, 32.0255486 ], [ 118.789357099999989, 32.025211399999982 ], [ 118.789419199999983, 32.0249734 ], [ 118.789468699999986, 32.024868500000032 ] ] ] } },
{ "type": "Feature", "properties": { "osm_id": "28194401", "code": 8200, "fclass": "water", "name": null, "fclass_cn": "水域", "statement": "该数据由立方数据学社整理，欢迎关注立方数据学社公众号", "area_m2": 28108.252344857141, "area_ha": 2.81 }, "geometry": { "type": "Polygon", "coordinates": [ [ [ 118.7738309, 32.020128499999984 ], [ 118.773686599999976, 32.0199968 ], [ 118.773615600000042, 32.020521900000027 ], [ 118.772968799999973, 32.023302300000033 ], [ 118.772781699999982, 32.024298699999974 ], [ 118.772535099999985, 32.024794699999973 ], [ 118.771956900000021, 32.025675700000029 ], [ 118.771587800000034, 32.02617309999998 ], [ 118.771098, 32.026670600000024 ], [ 118.770256199999977, 32.027351100000011 ], [ 118.769029900000049, 32.028193299999977 ], [ 118.7684549, 32.028582099999987 ], [ 118.7678347, 32.028989 ], [ 118.767221600000013, 32.029321399999972 ], [ 118.766306699999973, 32.029835200000029 ], [ 118.765805299999968, 32.030060800000044 ], [ 118.765166100000016, 32.030387100000041 ], [ 118.764866700000013, 32.030556400000016 ], [ 118.764581500000048, 32.030701400000019 ], [ 118.763968500000047, 32.030902899999987 ], [ 118.763983, 32.0310263 ], [ 118.764075500000018, 32.0314 ], [ 118.764704900000055, 32.0310102 ], [ 118.7647708, 32.03091969999997 ], [ 118.7653312, 32.0306097 ], [ 118.76569210000001, 32.03036220000002 ], [ 118.765999799999975, 32.030193199999985 ], [ 118.76622110000001, 32.03007340000002 ], [ 118.766753199999968, 32.029778 ], [ 118.767181699999981, 32.0295558 ], [ 118.76753640000004, 32.029342899999975 ], [ 118.7685707, 32.028680200000025 ], [ 118.76899610000001, 32.02837149999997 ], [ 118.769590900000011, 32.027991 ], [ 118.769936199999989, 32.0277395 ], [ 118.770291, 32.027469300000021 ], [ 118.770735200000018, 32.027177899999984 ], [ 118.770846599999985, 32.027032899999973 ], [ 118.771515199999968, 32.026474 ], [ 118.7718856, 32.02602289999998 ], [ 118.772307900000015, 32.025405499999984 ], [ 118.772763, 32.024636300000012 ], [ 118.772991900000036, 32.024107 ], [ 118.773087300000029, 32.023493499999965 ], [ 118.773429199999981, 32.0220049 ], [ 118.773611200000047, 32.021302899999981 ], [ 118.7738309, 32.020128499999984 ] ] ] } },
{ "type": "Feature", "properties": { "osm_id": "49514845", "code": 8200, "fclass": "water", "name": null, "fclass_cn": "水域", "statement": "该数据由立方数据学社整理，欢迎关注立方数据学社公众号", "area_m2": 10583.483800343778, "area_ha": 1.06 }, "geometry": { "type": "Polygon", "coordinates": [ [ [ 118.793697400000013, 32.023442 ], [ 118.793489400000041, 32.02348140000003 ], [ 118.793370499999966, 32.023503900000023 ], [ 118.79341620000001, 32.0237548 ], [ 118.793509600000036, 32.024157900000041 ], [ 118.793535, 32.024317099999983 ], [ 118.793582700000044, 32.02438249999998 ], [ 118.7937349, 32.024622600000029 ], [ 118.793765400000041, 32.024620899999974 ], [ 118.79379889999997, 32.024737899999977 ], [ 118.79371060000004, 32.0248059 ], [ 118.793635499999951, 32.0248876 ], [ 118.7935543, 32.024941799999979 ], [ 118.793410100000031, 32.024926400000041 ], [ 118.793335, 32.024903099999982 ], [ 118.7930661, 32.02488420000001 ], [ 118.792688500000025, 32.024939300000035 ], [ 118.792889500000058, 32.025336799999977 ], [ 118.7931229, 32.0252404 ], [ 118.793462, 32.0251814 ], [ 118.794055599999979, 32.025069100000032 ], [ 118.794314900000032, 32.024744800000015 ], [ 118.794363200000035, 32.024576600000046 ], [ 118.794025299999973, 32.0243173 ], [ 118.793845600000012, 32.024089100000026 ], [ 118.7937562, 32.023841299999958 ], [ 118.793697400000013, 32.023442 ] ] ] } }
]
}
