{
"type": "FeatureCollection",
"name": "njwater",
"crs": { "type": "name", "properties": { "name": "urn:ogc:def:crs:OGC:1.3:CRS84" } },
"features": [
{ "type": "Feature", "properties": { "name": "南河", "fclass": "river", "fclass_cn": "河/江", "len_km": 0.20447412915807162 }, "geometry": { "type": "LineString", "coordinates": [ [ 118.760312300372448, 32.016446299756979 ], [ 118.760220600100638, 32.015962499569753 ], [ 118.759529396464586, 32.01611099292802 ] ] } },
{ "type": "Feature", "properties": { "name": "外秦淮河", "fclass": "river", "fclass_cn": "河/江", "len_km": 5.3747325663746039 }, "geometry": { "type": "LineString", "coordinates": [ [ 118.786888700353302, 32.009252600227398 ], [ 118.784193299980871, 32.00965600012438 ], [ 118.78379979982094, 32.010390499821767 ], [ 118.7832090999201, 32.011264399832214 ], [ 118.781974499823377, 32.011835499908443 ], [ 118.776697600014245, 32.013131100120233 ], [ 118.773418699713261, 32.014509699662938 ], [ 118.771668000278055, 32.014899099813647 ], [ 118.77013530010413, 32.014783300409022 ], [ 118.768394500405975, 32.014561999736543 ], [ 118.767484999832959, 32.014446399981409 ], [ 118.766118200294727, 32.01472259976822 ], [ 118.762303799580764, 32.015904299943543 ], [ 118.760312300372448, 32.016446299756979 ] ] } },
{ "type": "Feature", "properties": { "name": null, "fclass": "stream", "fclass_cn": "溪/小河", "len_km": 0.014801689530268993 }, "geometry": { "type": "LineString", "coordinates": [ [ 118.782088899882865, 32.013014199945417 ], [ 118.782073099693889, 32.012986300277589 ], [ 118.782038699726286, 32.012964200337649 ] ] } },
{ "type": "Feature", "properties": { "name": null, "fclass": "stream", "fclass_cn": "溪/小河", "len_km": 0.011895366751960198 }, "geometry": { "type": "LineString", "coordinates": [ [ 118.77365890953115, 32.013222875935014 ], [ 118.773657500293439, 32.013276499810672 ] ] } },
{ "type": "Feature", "properties": { "name": null, "fclass": "stream", "fclass_cn": "溪/小河", "len_km": 0.17040847838024625 }, "geometry": { "type": "LineString", "coordinates": [ [ 118.782151499891825, 32.013714500224069 ], [ 118.782318000375426, 32.013672300436383 ], [ 118.782088899882865, 32.013014199945417 ] ] } },
{ "type": "Feature", "properties": { "name": null, "fclass": "stream", "fclass_cn": "溪/小河", "len_km": 0.067274622861798472 }, "geometry": { "type": "LineString", "coordinates": [ [ 118.773657500293439, 32.013276499810672 ], [ 118.773656199873813, 32.013327700013406 ], [ 118.773747400122488, 32.013568800160044 ] ] } },
{ "type": "Feature", "properties": { "name": "外秦淮河", "fclass": "river", "fclass_cn": "河/江", "len_km": 1.8145603865699298 }, "geometry": { "type": "LineString", "coordinates": [ [ 118.792106751225674, 32.015336019241943 ], [ 118.79193479995115, 32.015275699913673 ], [ 118.791745599679757, 32.015209300269021 ], [ 118.79161579962954, 32.0146595995609 ], [ 118.789948100424567, 32.009908699726736 ], [ 118.789752600402267, 32.009542699935707 ], [ 118.789612299867827, 32.009380400185364 ], [ 118.789518800052633, 32.009316499756721 ], [ 118.789246499726232, 32.009211199936999 ], [ 118.788906299686005, 32.009170400393714 ], [ 118.788343100154066, 32.00915579990027 ], [ 118.787861399883809, 32.009175000425955 ], [ 118.786888700353302, 32.009252600227398 ] ] } },
{ "type": "Feature", "properties": { "name": null, "fclass": "stream", "fclass_cn": "溪/小河", "len_km": 0.029737748042629915 }, "geometry": { "type": "LineString", "coordinates": [ [ 118.781999900275196, 32.013750500085564 ], [ 118.782151499891825, 32.013714500224069 ] ] } },
{ "type": "Feature", "properties": { "name": null, "fclass": "stream", "fclass_cn": "溪/小河", "len_km": 0.082315116860117846 }, "geometry": { "type": "LineString", "coordinates": [ [ 118.773747400122488, 32.013568800160044 ], [ 118.773927400329285, 32.013906799559209 ] ] } },
{ "type": "Feature", "properties": { "name": null, "fclass": "stream", "fclass_cn": "溪/小河", "len_km": 0.059382924465807042 }, "geometry": { "type": "LineString", "coordinates": [ [ 118.782234699771607, 32.013972700080103 ], [ 118.782157099970277, 32.013735000270117 ], [ 118.782151499891825, 32.013714500224069 ] ] } },
{ "type": "Feature", "properties": { "name": null, "fclass": "stream", "fclass_cn": "溪/小河", "len_km": 0.21772573032847339 }, "geometry": { "type": "LineString", "coordinates": [ [ 118.782860100013636, 32.014697399865156 ], [ 118.782846999589424, 32.014660800155866 ], [ 118.782773099598899, 32.014630799671693 ], [ 118.782628600129897, 32.014229800065266 ], [ 118.78262330042503, 32.014214999922388 ], [ 118.78266169967776, 32.014204799811694 ], [ 118.782518499729008, 32.013789500085409 ] ] } },
{ "type": "Feature", "properties": { "name": "外秦淮河", "fclass": "river", "fclass_cn": "河/江", "len_km": 2.3413909458394704 }, "geometry": { "type": "LineString", "coordinates": [ [ 118.792679599583948, 32.025230599612541 ], [ 118.793993599924761, 32.024843300278121 ], [ 118.793599900115396, 32.024123099801272 ], [ 118.793489400415524, 32.023481400246453 ], [ 118.793197500264455, 32.021787199819471 ], [ 118.792416000198273, 32.018124899644476 ], [ 118.792077400051994, 32.017372300191539 ], [ 118.791852100094388, 32.016733000027955 ], [ 118.791802200311395, 32.015885999639238 ], [ 118.791745599679757, 32.015209300269021 ] ] } },
{ "type": "Feature", "properties": { "name": null, "fclass": "river", "fclass_cn": "河/江", "len_km": 0.54144060130584737 }, "geometry": { "type": "LineString", "coordinates": [ [ 118.787644600318117, 32.02358679989095 ], [ 118.787993600224581, 32.023186199583506 ], [ 118.788074100339486, 32.023022499588762 ], [ 118.788106299666083, 32.022826899741688 ], [ 118.788138499891943, 32.022613200139119 ], [ 118.78818140025146, 32.022467599899869 ], [ 118.788267200071232, 32.022344800172448 ], [ 118.788374499983206, 32.022226599577948 ], [ 118.78861589960411, 32.022094699610761 ], [ 118.788771500304506, 32.021985500330629 ], [ 118.788846799640169, 32.021819599694823 ], [ 118.78922329991542, 32.021673000308795 ], [ 118.78927090013201, 32.021671600064337 ] ] } },
{ "type": "Feature", "properties": { "name": "内秦淮河", "fclass": "river", "fclass_cn": "河/江", "len_km": 6.9265632135608817 }, "geometry": { "type": "LineString", "coordinates": [ [ 118.792679599583948, 32.025230599612541 ], [ 118.792593399565817, 32.025040900217448 ], [ 118.791078100374079, 32.024883900171915 ], [ 118.790096600078073, 32.024858600444134 ], [ 118.789443999840728, 32.024740499674351 ], [ 118.787644600318117, 32.02358679989095 ], [ 118.786899500311733, 32.02310909980514 ], [ 118.78668340041861, 32.02297059971346 ], [ 118.786206700379012, 32.02266490036493 ], [ 118.784472200431765, 32.021584800198411 ], [ 118.783229299592563, 32.020664200192755 ], [ 118.782123299850468, 32.020319599769778 ], [ 118.781131299969616, 32.020011299581881 ], [ 118.780904800316307, 32.019868800205018 ], [ 118.78078649989709, 32.01965690014589 ], [ 118.780016000338151, 32.018357299749653 ], [ 118.779275199990593, 32.015977299712688 ], [ 118.779062700083614, 32.015641400230493 ], [ 118.778744599983384, 32.015415399700998 ], [ 118.777930799866567, 32.015255699890702 ], [ 118.777645999863012, 32.015285700374818 ], [ 118.776629999774741, 32.015555499686627 ], [ 118.775832300220486, 32.016108099809003 ], [ 118.775403700420497, 32.016648499728547 ], [ 118.77432809956224, 32.018017499907728 ], [ 118.774038400052177, 32.018887700107314 ], [ 118.773886599886737, 32.019691300113436 ], [ 118.773159200336863, 32.023074299639291 ], [ 118.772734900195587, 32.024594299587307 ], [ 118.772224200386631, 32.025400600257569 ], [ 118.771760699696642, 32.026157899567465 ], [ 118.770795600336783, 32.027011099882429 ], [ 118.769388500379023, 32.028037599555603 ], [ 118.767852200218954, 32.0290717002988 ], [ 118.766180599754989, 32.029980899598911 ], [ 118.764750899834212, 32.030810699554195 ], [ 118.76463289978858, 32.030928499950392 ] ] } },
{ "type": "Feature", "properties": { "name": "外秦淮河", "fclass": "river", "fclass_cn": "河/江", "len_km": 3.3649185921100222 }, "geometry": { "type": "LineString", "coordinates": [ [ 118.760312300372448, 32.016446299756979 ], [ 118.760398500390579, 32.016997100335971 ], [ 118.761732200380834, 32.021031299854656 ], [ 118.762775600113969, 32.02476070024619 ], [ 118.763129899725186, 32.027321499987295 ], [ 118.76278599987404, 32.030437700339633 ], [ 118.762865199569319, 32.03139020019762 ] ] } },
{ "type": "Feature", "properties": { "name": "秦淮河", "fclass": "river", "fclass_cn": "河/江", "len_km": 0.49664989366795648 }, "geometry": { "type": "LineString", "coordinates": [ [ 118.795182973115743, 32.024927293359951 ], [ 118.794788900087724, 32.024938099613678 ], [ 118.794437200416496, 32.02520350034132 ], [ 118.794239899951435, 32.025483499763766 ], [ 118.794034099993837, 32.025588900307582 ], [ 118.792835999781573, 32.025779099725696 ] ] } },
{ "type": "Feature", "properties": { "name": "内秦淮河中段（运渎）", "fclass": "river", "fclass_cn": "河/江", "len_km": 5.3991161578124247 }, "geometry": { "type": "LineString", "coordinates": [ [ 118.789443999840728, 32.024740499674351 ], [ 118.789213199629557, 32.025357100050201 ], [ 118.788871500419418, 32.02604739986765 ], [ 118.788065299573987, 32.026566400419085 ], [ 118.78704330010828, 32.027224400185958 ], [ 118.78393610017099, 32.02985859989451 ], [ 118.783398700389739, 32.030200700202215 ], [ 118.782266300149672, 32.030422199624866 ], [ 118.779627100210519, 32.0310130002498 ], [ 118.776645999613265, 32.031986199803328 ], [ 118.774133899959565, 32.032690199892841 ], [ 118.772803899780229, 32.033186700306032 ], [ 118.771261799892159, 32.03376250023922 ], [ 118.770730699861929, 32.034060100293459 ], [ 118.770214899997654, 32.034466000305713 ], [ 118.769789599810224, 32.034682799871348 ], [ 118.7694984002311, 32.034802600359797 ], [ 118.769169799646647, 32.034932799708997 ], [ 118.768909999896664, 32.035076600404864 ], [ 118.768703699915932, 32.035213600427369 ], [ 118.768510500359412, 32.035402199951591 ], [ 118.768242100392627, 32.035717600287057 ], [ 118.767794399891727, 32.036425700385792 ], [ 118.767682599772229, 32.036547400242398 ], [ 118.766857100374978, 32.037081399686883 ], [ 118.766203300442044, 32.037310900377804 ], [ 118.765686299982804, 32.03745110018815 ] ] } },
{ "type": "Feature", "properties": { "name": "内秦淮河", "fclass": "river", "fclass_cn": "河/江", "len_km": 0.35026706886074688 }, "geometry": { "type": "LineString", "coordinates": [ [ 118.76463289978858, 32.030928499950392 ], [ 118.764023699933887, 32.031170299769542 ], [ 118.763233800199828, 32.031327600188661 ], [ 118.762865199569319, 32.03139020019762 ] ] } },
{ "type": "Feature", "properties": { "name": "秦淮河", "fclass": "river", "fclass_cn": "河/江", "len_km": 0.23815731632532736 }, "geometry": { "type": "LineString", "coordinates": [ [ 118.762865199569319, 32.03139020019762 ], [ 118.763068600135853, 32.032449999967582 ] ] } },
{ "type": "Feature", "properties": { "name": "内秦淮河中段(运渎)", "fclass": "river", "fclass_cn": "河/江", "len_km": 0.02416310088887311 }, "geometry": { "type": "LineString", "coordinates": [ [ 118.765686299982804, 32.03745110018815 ], [ 118.765564399577443, 32.037484099911353 ] ] } },
{ "type": "Feature", "properties": { "name": "内秦淮河中段(运渎)", "fclass": "river", "fclass_cn": "河/江", "len_km": 0.21638549862713954 }, "geometry": { "type": "LineString", "coordinates": [ [ 118.765564399577443, 32.037484099911353 ], [ 118.764721000074132, 32.037712800205611 ], [ 118.764478200208828, 32.037793300320629 ] ] } },
{ "type": "Feature", "properties": { "name": "内秦淮河东段（杨吴城濠）", "fclass": "river", "fclass_cn": "河/江", "len_km": 0.84723883254218257 }, "geometry": { "type": "LineString", "coordinates": [ [ 118.795357616960473, 32.028011372626793 ], [ 118.795295999910536, 32.027904999915847 ], [ 118.79462160010678, 32.027223099766275 ], [ 118.793992300404398, 32.027066699568593 ], [ 118.793335399609077, 32.02701870005302 ], [ 118.793203299992342, 32.026955299647398 ], [ 118.793139399563756, 32.026842799855388 ], [ 118.792835999781573, 32.025779099725696 ], [ 118.792679599583948, 32.025230599612541 ] ] } },
{ "type": "Feature", "properties": { "name": "内秦淮河中段(运渎)", "fclass": "river", "fclass_cn": "河/江", "len_km": 0.28780329829329937 }, "geometry": { "type": "LineString", "coordinates": [ [ 118.764478200208828, 32.037793300320629 ], [ 118.763003699661112, 32.038119800088737 ] ] } },
{ "type": "Feature", "properties": { "name": "秦淮河", "fclass": "river", "fclass_cn": "河/江", "len_km": 1.3323241045863552 }, "geometry": { "type": "LineString", "coordinates": [ [ 118.763068600135853, 32.032449999967582 ], [ 118.763306299945839, 32.034206500029995 ], [ 118.763106299716014, 32.036137400220923 ], [ 118.762535300363879, 32.038269399613171 ], [ 118.762482395945881, 32.03840654352723 ] ] } },
{ "type": "Feature", "properties": { "name": "内秦淮河中段(运渎)", "fclass": "river", "fclass_cn": "河/江", "len_km": 0.094515928940132291 }, "geometry": { "type": "LineString", "coordinates": [ [ 118.763003699661112, 32.038119800088737 ], [ 118.762804200353571, 32.038189400420549 ], [ 118.762535300363879, 32.038269399613171 ] ] } }
]
}
