{
"type": "FeatureCollection",
"name": "nj2010river",
"crs": { "type": "name", "properties": { "name": "urn:ogc:def:crs:OGC:1.3:CRS84" } },
"features": [
{ "type": "Feature", "properties": { "osm_id": "192381843", "code": 8104, "fclass": "drain", "width": 0, "name": null, "fclass_cn": "排水管/下水道", "statement": "该数据由立方数据学社整理，欢迎关注立方数据学社公众号", "len_m": 669.61417729703578, "len_km": 0.67 }, "geometry": { "type": "LineString", "coordinates": [ [ 118.7630686, 32.03245 ], [ 118.763306300000011, 32.0342065 ], [ 118.7631063, 32.0361374 ], [ 118.76253530000001, 32.0382694 ], [ 118.762482395770391, 32.038406543900905 ] ] } },
{ "type": "Feature", "properties": { "osm_id": "192381845", "code": 8104, "fclass": "drain", "width": 0, "name": null, "fclass_cn": "排水管/下水道", "statement": "该数据由立方数据学社整理，欢迎关注立方数据学社公众号", "len_m": 450.69831955174584, "len_km": 0.45 }, "geometry": { "type": "LineString", "coordinates": [ [ 118.795369920923775, 32.028007845212656 ], [ 118.7953502, 32.0278886 ], [ 118.7946216, 32.0272231 ], [ 118.7939923, 32.0270667 ], [ 118.793335400000018, 32.0270187 ], [ 118.7932033, 32.0269553 ], [ 118.7931394, 32.0268428 ], [ 118.792679600000014, 32.0252306 ] ] } },
{ "type": "Feature", "properties": { "osm_id": "194051638", "code": 8103, "fclass": "canal", "width": 0, "name": null, "fclass_cn": "运河", "statement": "该数据由立方数据学社整理，欢迎关注立方数据学社公众号", "len_m": 119.09871941447156, "len_km": 0.12 }, "geometry": { "type": "LineString", "coordinates": [ [ 118.7628652, 32.0313902 ], [ 118.7630686, 32.03245 ] ] } },
{ "type": "Feature", "properties": { "osm_id": "194051642", "code": 8103, "fclass": "canal", "width": 0, "name": null, "fclass_cn": "运河", "statement": "该数据由立方数据学社整理，欢迎关注立方数据学社公众号", "len_m": 3054.5076769299931, "len_km": 3.05 }, "geometry": { "type": "LineString", "coordinates": [ [ 118.789444, 32.0247405 ], [ 118.7892132, 32.0253571 ], [ 118.7888715, 32.0260474 ], [ 118.7870433, 32.0272244 ], [ 118.7839361, 32.0298586 ], [ 118.7833987, 32.0302007 ], [ 118.782266300000018, 32.0304222 ], [ 118.7796338, 32.0309731 ], [ 118.776646, 32.0319862 ], [ 118.77413390000001, 32.0326902 ], [ 118.7711706, 32.0338216 ], [ 118.7693413, 32.034933099999989 ], [ 118.7682287, 32.0358471 ], [ 118.7676826, 32.0365474 ], [ 118.7667664, 32.037134 ], [ 118.7652365, 32.037466 ], [ 118.7628042, 32.0381894 ], [ 118.76253530000001, 32.0382694 ] ] } },
{ "type": "Feature", "properties": { "osm_id": "203701728", "code": 8103, "fclass": "canal", "width": 0, "name": null, "fclass_cn": "运河", "statement": "该数据由立方数据学社整理，欢迎关注立方数据学社公众号", "len_m": 1731.4039871670352, "len_km": 1.73 }, "geometry": { "type": "LineString", "coordinates": [ [ 118.7605716, 32.0160999 ], [ 118.7603985, 32.0169971 ], [ 118.7617322, 32.0210313 ], [ 118.762904299999988, 32.0248444 ], [ 118.76312990000001, 32.0273215 ], [ 118.762786, 32.0304377 ], [ 118.7628652, 32.0313902 ] ] } },
{ "type": "Feature", "properties": { "osm_id": "121193156", "code": 8101, "fclass": "river", "width": 0, "name": null, "fclass_cn": "河/江", "statement": "该数据由立方数据学社整理，欢迎关注立方数据学社公众号", "len_m": 4371.5286437870718, "len_km": 4.37 }, "geometry": { "type": "LineString", "coordinates": [ [ 118.792679600000014, 32.0252306 ], [ 118.7925934, 32.0250409 ], [ 118.7910781, 32.0248839 ], [ 118.7900966, 32.024858599999988 ], [ 118.789444, 32.0247405 ], [ 118.7876446, 32.0235868 ], [ 118.7866834, 32.0229706 ], [ 118.78620669999998, 32.0226649 ], [ 118.78447220000001, 32.0215848 ], [ 118.7832293, 32.0206642 ], [ 118.7821365, 32.0202926 ], [ 118.7811607, 32.0199574 ], [ 118.780821700000018, 32.0196945 ], [ 118.780016, 32.0183573 ], [ 118.7792752, 32.0159773 ], [ 118.779062700000011, 32.015641399999986 ], [ 118.7787446, 32.0154154 ], [ 118.7779308, 32.0152557 ], [ 118.777646, 32.0152857 ], [ 118.77663, 32.0155555 ], [ 118.775832300000019, 32.0161081 ], [ 118.7754037, 32.0166485 ], [ 118.7743281, 32.0180175 ], [ 118.7740384, 32.0188877 ], [ 118.7738866, 32.0196913 ], [ 118.773159199999981, 32.023074299999983 ], [ 118.772734899999989, 32.0245943 ], [ 118.7722242, 32.0254006 ], [ 118.771760700000016, 32.0261579 ], [ 118.770795599999985, 32.0270111 ], [ 118.7693885, 32.028037599999983 ], [ 118.7678522, 32.0290717 ], [ 118.766180599999984, 32.0299809 ], [ 118.7647509, 32.0308107 ], [ 118.763983, 32.0310263 ], [ 118.76321249999998, 32.0312426 ], [ 118.7628652, 32.0313902 ] ] } },
{ "type": "Feature", "properties": { "osm_id": "202809141", "code": 8103, "fclass": "canal", "width": 0, "name": null, "fclass_cn": "运河", "statement": "该数据由立方数据学社整理，欢迎关注立方数据学社公众号", "len_m": 304.79852343649395, "len_km": 0.3 }, "geometry": { "type": "LineString", "coordinates": [ [ 118.7876446, 32.0235868 ], [ 118.7879936, 32.0231862 ], [ 118.7880741, 32.0230225 ], [ 118.7881063, 32.0228269 ], [ 118.7881385, 32.0226132 ], [ 118.788181399999985, 32.0224676 ], [ 118.7882672, 32.0223448 ], [ 118.788374500000018, 32.0222266 ], [ 118.7886159, 32.0220947 ], [ 118.78877150000001, 32.0219855 ], [ 118.788846800000016, 32.0218196 ], [ 118.789223300000018, 32.021673 ], [ 118.789538600000014, 32.021699 ] ] } },
{ "type": "Feature", "properties": { "osm_id": "191289744", "code": 8102, "fclass": "stream", "width": 0, "name": null, "fclass_cn": "溪/小河", "statement": "该数据由立方数据学社整理，欢迎关注立方数据学社公众号", "len_m": 1231.2667249914291, "len_km": 1.23 }, "geometry": { "type": "LineString", "coordinates": [ [ 118.792679600000014, 32.0252306 ], [ 118.7939936, 32.0248433 ], [ 118.7935999, 32.024123099999983 ], [ 118.793489400000013, 32.0234814 ], [ 118.7931975, 32.0217872 ], [ 118.7926602, 32.0183079 ], [ 118.791891, 32.0169491 ], [ 118.7918022, 32.015886 ], [ 118.791745600000013, 32.0152093 ] ] } },
{ "type": "Feature", "properties": { "osm_id": "244967321", "code": 8103, "fclass": "canal", "width": 0, "name": null, "fclass_cn": "运河", "statement": "该数据由立方数据学社整理，欢迎关注立方数据学社公众号", "len_m": 973.18784139073273, "len_km": 0.97 }, "geometry": { "type": "LineString", "coordinates": [ [ 118.792106750779695, 32.015336019647833 ], [ 118.7919348, 32.0152757 ], [ 118.791745600000013, 32.0152093 ], [ 118.7916158, 32.0146596 ], [ 118.7894254, 32.0092526 ], [ 118.7868887, 32.0092526 ] ] } },
{ "type": "Feature", "properties": { "osm_id": "61484820", "code": 8101, "fclass": "river", "width": 0, "name": null, "fclass_cn": "河/江", "statement": "该数据由立方数据学社整理，欢迎关注立方数据学社公众号", "len_m": 2713.1638924674126, "len_km": 2.71 }, "geometry": { "type": "LineString", "coordinates": [ [ 118.7868887, 32.0092526 ], [ 118.7841933, 32.009656 ], [ 118.783242, 32.0114037 ], [ 118.7738877, 32.0140925 ], [ 118.771668, 32.0148991 ], [ 118.7701353, 32.0147833 ], [ 118.768394499999985, 32.014562 ], [ 118.767485, 32.0144464 ], [ 118.7661182, 32.0147226 ], [ 118.7623038, 32.0159043 ], [ 118.7605716, 32.0160999 ] ] } },
{ "type": "Feature", "properties": { "osm_id": "87900998", "code": 8101, "fclass": "river", "width": 0, "name": null, "fclass_cn": "河/江", "statement": "该数据由立方数据学社整理，欢迎关注立方数据学社公众号", "len_m": 97.146945878800452, "len_km": 0.1 }, "geometry": { "type": "LineString", "coordinates": [ [ 118.7605716, 32.0160999 ], [ 118.759550412905298, 32.016201242141335 ] ] } }
]
}
