{
"type": "FeatureCollection",
"name": "内涝点",
"crs": { "type": "name", "properties": { "name": "urn:ogc:def:crs:OGC:1.3:CRS84" } },
"features": [
{ "type": "Feature", "properties": { "Id": 0, "style_color": "#f85149" }, "geometry": { "type": "Polygon", "coordinates": [ [ [ 118.775398339825188, 32.015014641706493 ], [ 118.775448846685876, 32.015011110944783 ], [ 118.775498454233031, 32.015000986690815 ], [ 118.775546305496107, 32.014984443841129 ], [ 118.775591573844309, 32.014961768173499 ], [ 118.775633477266808, 32.014933351410193 ], [ 118.775671291881764, 32.014899684450917 ], [ 118.775704364441594, 32.014861348892481 ], [ 118.775732123617658, 32.014819006981838 ], [ 118.775754089870134, 32.014773390175648 ], [ 118.775769883731883, 32.014725286504429 ], [ 118.77577923236386, 32.01467552695928 ], [ 118.775781974268483, 32.014624971136548 ], [ 118.775778062079283, 32.01457449238827 ], [ 118.775767563379333, 32.014524962734995 ], [ 118.77575065953377, 32.014477237801692 ], [ 118.775727642556532, 32.014432142036789 ], [ 118.775698910066055, 32.014390454469762 ], [ 118.775664958416186, 32.014352895253523 ], [ 118.775626374121828, 32.014320113223683 ], [ 118.775583823726777, 32.014292674689926 ], [ 118.775538042289327, 32.014271053653019 ], [ 118.77548982068393, 32.014255623616464 ], [ 118.775439991939052, 32.014246651134236 ], [ 118.775389416846451, 32.014244291205955 ], [ 118.775338161093885, 32.014249925327682 ], [ 118.775288116295542, 32.014262351656924 ], [ 118.775240178371234, 32.014281347733139 ], [ 118.775195205522678, 32.01430657348179 ], [ 118.775154002869897, 32.014337577302555 ], [ 118.77511730803738, 32.014373804154012 ], [ 118.775085777949087, 32.01441460549016 ], [ 118.775059977067897, 32.014459250870985 ], [ 118.77504036729033, 32.014506941038967 ], [ 118.775027299677603, 32.014556822227782 ], [ 118.775021008170796, 32.014608001446646 ], [ 118.775021605402685, 32.014659562466932 ], [ 118.775029080681421, 32.014710582224943 ], [ 118.775043300181906, 32.014760147346799 ], [ 118.775064009341563, 32.014807370500087 ], [ 118.775090837417679, 32.014851406279085 ], [ 118.775123304124449, 32.01489146633962 ], [ 118.775160828231364, 32.014926833512249 ], [ 118.775202737968527, 32.014956874641236 ], [ 118.775248283052889, 32.014981051919627 ], [ 118.775296648120147, 32.014998932517166 ], [ 118.775346967321653, 32.015010196329051 ], [ 118.775398339825188, 32.015014641706493 ] ] ] } },
{ "type": "Feature", "properties": { "Id": 0, "style_color": "#f85149" }, "geometry": { "type": "Polygon", "coordinates": [ [ [ 118.773584408787315, 32.031281537867244 ], [ 118.773635800791268, 32.031279183795419 ], [ 118.773686430317284, 32.031270055223686 ], [ 118.773735408319922, 32.031254312448155 ], [ 118.773781874754249, 32.031232231909122 ], [ 118.773825013678035, 32.031204201336912 ], [ 118.77386406757951, 32.031170712943329 ], [ 118.773898350679147, 32.03113235477857 ], [ 118.77392726097186, 32.031089800405141 ], [ 118.773950290798126, 32.031043797070183 ], [ 118.77396703575829, 32.030995152584019 ], [ 118.773977201813864, 32.030944721135128 ], [ 118.773980610450735, 32.030893388290679 ], [ 118.773977201813864, 32.030842055446229 ], [ 118.77396703575829, 32.030791623997324 ], [ 118.773950290798126, 32.030742979511174 ], [ 118.77392726097186, 32.030696976176202 ], [ 118.773898350679147, 32.03065442180278 ], [ 118.77386406757951, 32.030616063638028 ], [ 118.773825013678035, 32.030582575244438 ], [ 118.773781874754249, 32.030554544672221 ], [ 118.773735408319922, 32.030532464133195 ], [ 118.773686430317284, 32.030516721357671 ], [ 118.773635800791268, 32.030507592785945 ], [ 118.773584408787315, 32.030505238714113 ], [ 118.773533054034289, 32.030511028492718 ], [ 118.773482915495819, 32.030523556826907 ], [ 118.773434873369965, 32.030542603777803 ], [ 118.773389771051498, 32.030567834970128 ], [ 118.773348400326014, 32.030598807462219 ], [ 118.773311487469698, 32.030634977522169 ], [ 118.77327968049957, 32.030675710173057 ], [ 118.773253537797089, 32.030720290340199 ], [ 118.77323351830573, 32.030767935404597 ], [ 118.773219973474028, 32.030817808941961 ], [ 118.773213141085762, 32.030869035406482 ], [ 118.773213141085762, 32.03092071550126 ], [ 118.773219973474028, 32.030971941965774 ], [ 118.77323351830573, 32.031021815503145 ], [ 118.773253537797089, 32.031069460567537 ], [ 118.77327968049957, 32.031114040734685 ], [ 118.773311487469698, 32.031154773385545 ], [ 118.773348400326014, 32.031190943445495 ], [ 118.773389771051498, 32.031221915937621 ], [ 118.773434873369965, 32.031247147129925 ], [ 118.773482915495819, 32.031266194080821 ], [ 118.773533054034289, 32.031278722415017 ], [ 118.773584408787315, 32.031284512193622 ], [ 118.773584408787315, 32.031281537867244 ] ] ] } }
]
}
