{
"type": "FeatureCollection",
"name": "透水铺装",
"crs": { "type": "name", "properties": { "name": "urn:ogc:def:crs:OGC:1.3:CRS84" } },
"features": [
{ "type": "Feature", "properties": { "Name": "建邺路", "len_km": 1.4345980693079927 }, "geometry": { "type": "LineString", "coordinates": [ [ 118.764271149528369, 32.03651690151495 ], [ 118.76471848819746, 32.036543551478211 ], [ 118.764857448720193, 32.036543551478218 ], [ 118.764969759279694, 32.036526419358971 ], [ 118.76511252694003, 32.036499769395704 ], [ 118.765190355143773, 32.036477818867937 ], [ 118.765281726446375, 32.03644736176706 ], [ 118.765371194180204, 32.03641690466619 ], [ 118.765483504739677, 32.036378833290094 ], [ 118.765546322510218, 32.036357894033245 ], [ 118.765634838459633, 32.036326881724804 ], [ 118.765751709652719, 32.036288294798844 ], [ 118.765823807321198, 32.036263310458281 ], [ 118.765883055900233, 32.036231187734693 ], [ 118.765917462906401, 32.036215530881279 ], [ 118.765959341420114, 32.036200302330855 ], [ 118.765997412796196, 32.036187929133618 ], [ 118.76604119487871, 32.036154616679539 ], [ 118.766076410901604, 32.036131773853882 ], [ 118.766114878854523, 32.036115871122838 ], [ 118.766139863195107, 32.036102665114235 ], [ 118.766195185663491, 32.036048056484162 ], [ 118.766223501249456, 32.036030805391874 ], [ 118.766264903870976, 32.036021763440047 ], [ 118.766454007568669, 32.035890417192505 ], [ 118.76653274393334, 32.03583752177434 ], [ 118.766666231695794, 32.03574400895679 ], [ 118.766719055730135, 32.035704747850197 ], [ 118.766839159024443, 32.035610164275191 ], [ 118.76705485716468, 32.035475566097574 ], [ 118.767257319552982, 32.035356979709732 ], [ 118.767495506574008, 32.035208548932175 ], [ 118.767706219743388, 32.035078564926117 ], [ 118.767792360197546, 32.03502719632877 ], [ 118.767870715848431, 32.034978131842848 ], [ 118.767939720217612, 32.034931018514932 ], [ 118.768032995089015, 32.034874387342967 ], [ 118.76829083348369, 32.034738884970231 ], [ 118.768352699469844, 32.034709141707651 ], [ 118.768462749541385, 32.034652629508741 ], [ 118.768677248036653, 32.034535143621582 ], [ 118.769002718644586, 32.034374133426837 ], [ 118.769469568893967, 32.034365868765619 ], [ 118.769693479452286, 32.034421482982459 ], [ 118.76979006246259, 32.034452877723083 ], [ 118.770012542066652, 32.034555194546343 ], [ 118.770072901060857, 32.034585775577469 ], [ 118.770414591661307, 32.034867503760573 ], [ 118.77079284664589, 32.034665725467278 ], [ 118.771004856621488, 32.034553890799998 ], [ 118.771379550346083, 32.034376930284985 ], [ 118.771813889226465, 32.034173902774675 ], [ 118.772042662504859, 32.034066815132107 ], [ 118.772149738250121, 32.034016846450996 ], [ 118.7724257557268, 32.033889545287181 ], [ 118.773144888329313, 32.033556242286785 ], [ 118.774209744718647, 32.03306336073404 ], [ 118.774378289873184, 32.032983490159602 ], [ 118.774572453891267, 32.032925431311057 ], [ 118.775029516624372, 32.032790357241282 ], [ 118.77555942259032, 32.032632361030473 ], [ 118.776052573815321, 32.032492131461879 ], [ 118.777052693002219, 32.032193556694857 ], [ 118.777722124612978, 32.031992730185983 ] ] } },
{ "type": "Feature", "properties": { "Name": "建邺路", "len_km": 1.4293332125391314 }, "geometry": { "type": "LineString", "coordinates": [ [ 118.764305784741637, 32.036391733945813 ], [ 118.764365271266783, 32.036407200442333 ], [ 118.764464018898536, 32.036421477208371 ], [ 118.764596078984368, 32.036429805321887 ], [ 118.764938721369219, 32.0364333745134 ], [ 118.765157854856184, 32.036396304493813 ], [ 118.765401467048278, 32.036321738134539 ], [ 118.765550183361142, 32.036278907836433 ], [ 118.765648930992896, 32.036251544034876 ], [ 118.765746488894138, 32.036218231580797 ], [ 118.765861278058779, 32.036167365644594 ], [ 118.765945035086219, 32.036114065718067 ], [ 118.765996431443938, 32.036104547874039 ], [ 118.766068767058513, 32.036041730103499 ], [ 118.766093513452986, 32.036022694415443 ], [ 118.766148716948322, 32.036009369433806 ], [ 118.766411409443364, 32.035832337534977 ], [ 118.766675783424176, 32.035657018848049 ], [ 118.767327755739771, 32.03524061317205 ], [ 118.768001922701743, 32.034804664801094 ], [ 118.768363178196481, 32.03462171536443 ], [ 118.768571381034505, 32.034511665292918 ], [ 118.768966847453655, 32.034295134341406 ], [ 118.769201303678074, 32.034274766155178 ], [ 118.769397371264944, 32.034276669723987 ], [ 118.769509681824417, 32.034293801843219 ], [ 118.76958156534144, 32.034308792447561 ], [ 118.769724052406431, 32.034343056918971 ], [ 118.770091245888906, 32.034491535052801 ], [ 118.770149812355768, 32.034513441957124 ], [ 118.770444865520489, 32.03476471303933 ], [ 118.770899723286391, 32.034514155795421 ], [ 118.77115452390241, 32.034377098841489 ], [ 118.771472776811962, 32.034228382528617 ], [ 118.771939746034334, 32.034020179690614 ], [ 118.772734486010265, 32.033658799050372 ], [ 118.773227034438463, 32.033425611871806 ], [ 118.774277249211053, 32.032917596947037 ], [ 118.774358150885263, 32.032872704449403 ], [ 118.77462346078741, 32.032801419763437 ], [ 118.775208927167924, 32.03262756047927 ], [ 118.776494692717023, 32.032250986980479 ], [ 118.777243271149445, 32.032018989532403 ], [ 118.777698450142523, 32.031876983299597 ] ] } },
{ "type": "Feature", "properties": { "Name": "仓巷", "len_km": 0.47223981680198174 }, "geometry": { "type": "LineString", "coordinates": [ [ 118.769642367234837, 32.034288479019402 ], [ 118.769496001535117, 32.034045689804785 ], [ 118.769175091560783, 32.033498572404177 ], [ 118.768791879365835, 32.03288534564529 ], [ 118.768389750455825, 32.03225673963675 ], [ 118.768002659739409, 32.031648049716843 ], [ 118.767806132123411, 32.031346889268846 ], [ 118.767584277127867, 32.03100424688396 ], [ 118.767380000400479, 32.030692497834487 ], [ 118.767269920585662, 32.030541521033669 ] ] } },
{ "type": "Feature", "properties": { "Name": "安品街", "len_km": 0.59677425885428503 }, "geometry": { "type": "LineString", "coordinates": [ [ 118.768295523800049, 32.032043639074921 ], [ 118.768541084175865, 32.03181949384814 ], [ 118.768733820517383, 32.031702424366642 ], [ 118.769026623108601, 32.031532679567128 ], [ 118.769215076420295, 32.031424176145237 ], [ 118.769350229805454, 32.031361358374674 ], [ 118.769622440144545, 32.031237626402365 ], [ 118.770455378401309, 32.030864019298249 ], [ 118.771202529157236, 32.030521376913342 ], [ 118.771277561494315, 32.030454910635918 ], [ 118.771744054824538, 32.030382396561762 ], [ 118.772322442308578, 32.030309585054951 ], [ 118.772610148887466, 32.030357233761613 ], [ 118.7723103368007, 32.030352950731796 ], [ 118.771722181629215, 32.03043109223124 ], [ 118.771271035822494, 32.030514849258651 ], [ 118.77120277701772, 32.030521115172618 ], [ 118.771202539071609, 32.030521115172618 ] ] } },
{ "type": "Feature", "properties": { "Name": "长乐路", "len_km": 1.7158967401042127 }, "geometry": { "type": "LineString", "coordinates": [ [ 118.775414117634142, 32.021396132058427 ], [ 118.77554118085186, 32.021394704381819 ], [ 118.775601262242262, 32.021410646770555 ], [ 118.775776152626179, 32.021410051905299 ], [ 118.77582017265479, 32.021400534061279 ], [ 118.776059865282903, 32.021395178953043 ], [ 118.776212185936188, 32.021364054241047 ], [ 118.776461718965578, 32.021314502665724 ], [ 118.776673184558348, 32.021239968616996 ], [ 118.776772758856509, 32.021210532772585 ], [ 118.77690810585041, 32.021176297621835 ], [ 118.777017434152128, 32.021147934446631 ], [ 118.777136407202462, 32.021107007717312 ], [ 118.777303445365121, 32.021041651855008 ], [ 118.777469055851128, 32.020977029659861 ], [ 118.777578063412221, 32.020937202311622 ], [ 118.777899678806776, 32.02082530332877 ], [ 118.778331455801052, 32.020671875683057 ], [ 118.778471235497221, 32.020617580408505 ], [ 118.778596801395139, 32.020564014715632 ], [ 118.778746983473582, 32.020511673005473 ], [ 118.778927903394134, 32.02044953884662 ], [ 118.779258523915914, 32.020333160640938 ], [ 118.779492906409985, 32.020249039513608 ], [ 118.779939769186953, 32.020089758393844 ], [ 118.780482627352384, 32.019897347245383 ], [ 118.780649427568903, 32.01983809866632 ], [ 118.780758787596724, 32.019795387341254 ], [ 118.780962350485808, 32.019709429312407 ], [ 118.7811769432506, 32.019620814454719 ], [ 118.781337988063314, 32.019553753076067 ], [ 118.781759463435947, 32.01941688971683 ], [ 118.781916154547432, 32.019362756107732 ], [ 118.782295832989746, 32.019231570570462 ], [ 118.782687496171832, 32.01909623900729 ], [ 118.783125908879995, 32.0189389706104 ], [ 118.783583499211218, 32.018776178063654 ], [ 118.783813301689989, 32.018691803241154 ], [ 118.783952412911887, 32.018640962090998 ], [ 118.784072337746593, 32.01859599027798 ], [ 118.784286290948685, 32.018515921415158 ], [ 118.784651904775103, 32.018382693245471 ], [ 118.785046909453911, 32.018234431178172 ], [ 118.785346960486308, 32.01812142262402 ], [ 118.78556348383303, 32.018041061483856 ], [ 118.785817768498433, 32.017946685491864 ], [ 118.785998594609907, 32.017879573133271 ], [ 118.786075875739229, 32.017850890777503 ], [ 118.786138992825784, 32.017833250086845 ], [ 118.78629832688803, 32.017765981792138 ], [ 118.78637818814336, 32.017739915728875 ], [ 118.786573806665658, 32.017660831926506 ], [ 118.786786670214298, 32.017583561346186 ], [ 118.787164126989595, 32.017435147408285 ], [ 118.787683429580824, 32.017233203559101 ], [ 118.787921058419911, 32.017132631673945 ], [ 118.788235147272673, 32.017015562192455 ], [ 118.788923763287784, 32.016752512778261 ], [ 118.789152667436539, 32.016645437032992 ], [ 118.789279873421933, 32.01658642640006 ], [ 118.789361250988335, 32.016565011250997 ], [ 118.789464757542106, 32.016539313072144 ], [ 118.789526052457603, 32.01652398934327 ], [ 118.789584587198334, 32.016506857224023 ], [ 118.789631700526229, 32.016492580457992 ], [ 118.789666678603041, 32.016476162177042 ], [ 118.789739490109767, 32.016469166561699 ], [ 118.789875595279312, 32.016467262992904 ], [ 118.790325717917753, 32.016468040283506 ], [ 118.791113747813711, 32.016455619497052 ], [ 118.79174938116374, 32.016440866838828 ], [ 118.7921863711301, 32.016440122251282 ], [ 118.792378470995985, 32.016437971827941 ] ] } },
{ "type": "Feature", "properties": { "Name": "长乐路", "len_km": 1.7157743930474085 }, "geometry": { "type": "LineString", "coordinates": [ [ 118.775395723085182, 32.021321166695799 ], [ 118.775578465690472, 32.021331160431913 ], [ 118.775628434371541, 32.02133258810855 ], [ 118.775722661027402, 32.02132973275544 ], [ 118.775805466270384, 32.021324022048901 ], [ 118.776020658775067, 32.021324259995119 ], [ 118.776144866639541, 32.021299989492867 ], [ 118.776253370061411, 32.021278574343711 ], [ 118.776401015616969, 32.021248622878232 ], [ 118.776524747589363, 32.021203413119309 ], [ 118.776637871131314, 32.021166928050455 ], [ 118.77672115226639, 32.021153841014808 ], [ 118.776843694508187, 32.021115769638897 ], [ 118.776964214208135, 32.021081545058017 ], [ 118.777086042611671, 32.02103585940668 ], [ 118.777298480890238, 32.020956988205938 ], [ 118.777542217012723, 32.020867599787465 ], [ 118.77760289326838, 32.020855702482464 ], [ 118.777661190062958, 32.020841425716377 ], [ 118.77775755823366, 32.020804544070721 ], [ 118.778125383247428, 32.020666907123221 ], [ 118.778276716967468, 32.02061360719663 ], [ 118.778379896422592, 32.020568859686229 ], [ 118.778442327453462, 32.020545078719664 ], [ 118.778515138960131, 32.020533657306856 ], [ 118.77868646015277, 32.020456562770249 ], [ 118.779365141918177, 32.020204964512153 ], [ 118.779892684286153, 32.020024506189507 ], [ 118.780558933367701, 32.019788939549898 ], [ 118.780780388538645, 32.019706308163528 ], [ 118.781212734894183, 32.019540969969938 ], [ 118.78140269519767, 32.019471231933572 ], [ 118.781648969411833, 32.019385571337324 ], [ 118.781861931171733, 32.019312997776609 ], [ 118.782295587940169, 32.019164182319592 ], [ 118.782547810806776, 32.019073762801355 ], [ 118.782871789294362, 32.018963588799672 ], [ 118.783164462997959, 32.018856513054267 ], [ 118.783508919721911, 32.018734119528887 ], [ 118.783627892772145, 32.018695453287506 ], [ 118.78381670300287, 32.018624783295678 ], [ 118.784055473983429, 32.018536457703163 ], [ 118.784879624097314, 32.018220036978477 ], [ 118.786361552411748, 32.017679899330091 ], [ 118.787594113212734, 32.017199248206936 ], [ 118.788254017065213, 32.016935921188946 ], [ 118.788657335705537, 32.016800291911721 ], [ 118.788903609919728, 32.016714631315409 ], [ 118.789239113921525, 32.016546879314511 ], [ 118.789428281071608, 32.016496434741192 ], [ 118.78961102367677, 32.016429809833106 ], [ 118.789942244648685, 32.016397449163406 ], [ 118.790683335710639, 32.016377620321549 ], [ 118.790771375767861, 32.016389517626777 ], [ 118.790874046684237, 32.01637998436118 ], [ 118.791009321868358, 32.016370481938708 ], [ 118.791848217533314, 32.016361410178455 ], [ 118.792365218064859, 32.016351842827447 ] ] } },
{ "type": "Feature", "properties": { "Name": "长乐路", "len_km": 0.035871898177551979 }, "geometry": { "type": "LineString", "coordinates": [ [ 118.791874450502561, 32.016361273771601 ], [ 118.791984787808971, 32.016325147500169 ], [ 118.792098303962035, 32.016310363115771 ], [ 118.792244878760073, 32.016308459547119 ] ] } },
{ "type": "Feature", "properties": { "Name": "小西湖路", "len_km": 0.29382623401077185 }, "geometry": { "type": "LineString", "coordinates": [ [ 118.780500895664105, 32.018317627049491 ], [ 118.781441258653658, 32.017893131206044 ], [ 118.782332065402002, 32.017493381757049 ], [ 118.782841841127834, 32.017263938263852 ], [ 118.783009355182799, 32.017185891942802 ], [ 118.783239687008177, 32.017064063539294 ] ] } },
{ "type": "Feature", "properties": { "Name": "军事巷", "len_km": 0.40400217739592786 }, "geometry": { "type": "LineString", "coordinates": [ [ 118.77862044068614, 32.019107384860966 ], [ 118.778370597280386, 32.01834714706964 ], [ 118.778195706896653, 32.017801060768839 ], [ 118.778152043787017, 32.017663151174716 ], [ 118.77810683402808, 32.017439481840107 ], [ 118.778049726963772, 32.017192017895496 ], [ 118.778048299287306, 32.017102074269609 ], [ 118.778073045681694, 32.017059243971367 ], [ 118.778053105798435, 32.016791269072904 ], [ 118.778005516578204, 32.016493836447147 ], [ 118.777998378195321, 32.016389140162815 ], [ 118.778010275500364, 32.016146435140136 ], [ 118.778005516578204, 32.01558012342084 ], [ 118.778005040685997, 32.015535389553932 ] ] } },
{ "type": "Feature", "properties": { "Name": "江宁路", "len_km": 0.79900450991401606 }, "geometry": { "type": "LineString", "coordinates": [ [ 118.7896794287022, 32.016428775503101 ], [ 118.789554784149729, 32.016002553409379 ], [ 118.789399167400049, 32.015523726539662 ], [ 118.789227846207552, 32.015009762962364 ], [ 118.789088647738893, 32.014549337257883 ], [ 118.788956587652976, 32.014171002957788 ], [ 118.788878065439874, 32.013931867126843 ], [ 118.788570222672035, 32.013038379519031 ], [ 118.788157981052862, 32.011818905753699 ], [ 118.787757993657877, 32.010634053145644 ], [ 118.787603626125062, 32.010186417044146 ], [ 118.787531052564262, 32.009961557978926 ], [ 118.787466807117241, 32.009753355140994 ], [ 118.787441822776543, 32.009723611878393 ], [ 118.787417314328138, 32.009667456598685 ], [ 118.787392367400969, 32.009601635345717 ], [ 118.787368773323649, 32.009535158566756 ], [ 118.78736020726403, 32.0095037496815 ] ] } },
{ "type": "Feature", "properties": { "Name": "江宁路", "len_km": 0.030478783803219858 }, "geometry": { "type": "LineString", "coordinates": [ [ 118.787466443205915, 32.009752904670783 ], [ 118.787479768187538, 32.009704125720127 ], [ 118.787473105696719, 32.009647018656025 ], [ 118.787451226384334, 32.009598764658215 ], [ 118.787421709338957, 32.0095194795461 ], [ 118.787412191494852, 32.009488070660765 ] ] } },
{ "type": "Feature", "properties": { "Name": "老虎头", "len_km": 0.46042306600023741 }, "geometry": { "type": "LineString", "coordinates": [ [ 118.787730340802639, 32.010553882275417 ], [ 118.78715028769598, 32.010892737351703 ], [ 118.786526868912318, 32.011244897580532 ], [ 118.786136637307393, 32.011478084759069 ], [ 118.785485854722268, 32.011726738434284 ], [ 118.785562711312735, 32.012180501647954 ], [ 118.785934859014176, 32.012632123346918 ], [ 118.786251565273986, 32.013481115033876 ] ] } },
{ "type": "Feature", "properties": { "Name": "马道街", "len_km": 1.2213682457114847 }, "geometry": { "type": "LineString", "coordinates": [ [ 118.776607314147412, 32.01742743704753 ], [ 118.777021340362552, 32.017339396990366 ], [ 118.77712841610763, 32.017310843458205 ], [ 118.777336618945682, 32.017279910465135 ], [ 118.777373500591324, 32.017290618039702 ], [ 118.777434652739046, 32.017294187231222 ], [ 118.777515078521191, 32.017276103327582 ], [ 118.77757837218391, 32.017261826561516 ], [ 118.777936758669028, 32.017181559410204 ], [ 118.778119188969967, 32.017143448376579 ], [ 118.778201280374745, 32.017114894844404 ], [ 118.778227108536356, 32.017100572193073 ], [ 118.77846126028426, 32.017006605574032 ], [ 118.77874333792542, 32.016899233277769 ], [ 118.779018841364604, 32.016792850660387 ], [ 118.779166963216284, 32.016737365380351 ], [ 118.779507634456849, 32.016661156298284 ], [ 118.779699644490364, 32.016619278872525 ], [ 118.779992873727537, 32.016546568514769 ], [ 118.780219874307448, 32.016499455186789 ], [ 118.780415466002154, 32.016466618624882 ], [ 118.780914974353763, 32.016375889776803 ], [ 118.781516948244956, 32.016265720732207 ], [ 118.781768873678843, 32.016222196424714 ], [ 118.781853344544714, 32.016209109389052 ], [ 118.782054408999628, 32.016182935317964 ], [ 118.782287021141727, 32.016146351104986 ], [ 118.78248768902003, 32.016107784007907 ], [ 118.782812039298364, 32.016041753964963 ], [ 118.783085553383643, 32.015983258881903 ], [ 118.783273277985444, 32.015949004557882 ], [ 118.783545964216685, 32.015887614463985 ], [ 118.783775820149899, 32.015836218106223 ], [ 118.783860362399409, 32.015820882479971 ], [ 118.784269629692503, 32.015729273231251 ], [ 118.784693644686499, 32.015637341763835 ], [ 118.785004000759798, 32.015568267993821 ], [ 118.785278203897491, 32.015500834068888 ], [ 118.785599748394688, 32.015420170340768 ], [ 118.786053115031891, 32.015326260946516 ], [ 118.786281448109975, 32.015274007982804 ], [ 118.786631609591467, 32.015191750015759 ], [ 118.786828946224176, 32.015155423577738 ], [ 118.787012164721617, 32.015125680315151 ], [ 118.787474256048981, 32.015051024726034 ], [ 118.787744086927177, 32.015008194427963 ], [ 118.788256337292495, 32.014923200080965 ], [ 118.78843486825177, 32.014883986563547 ], [ 118.788639382925197, 32.014833779936254 ], [ 118.788785957722965, 32.014798563913452 ], [ 118.788996540021998, 32.014749665989683 ], [ 118.789097429168663, 32.01471682942779 ] ] } },
{ "type": "Feature", "properties": { "Name": "马道街", "len_km": 1.1521192745866669 }, "geometry": { "type": "LineString", "coordinates": [ [ 118.777341443183971, 32.017274803140339 ], [ 118.777362473653568, 32.017243240581742 ], [ 118.77743171596893, 32.017208262504965 ], [ 118.77763801523821, 32.017162576853558 ], [ 118.777929070908456, 32.017098712120202 ], [ 118.778061769482804, 32.017079881660521 ], [ 118.778248870467522, 32.017001630111253 ], [ 118.77844303448552, 32.016942619478264 ], [ 118.778524887944101, 32.016912162377402 ], [ 118.779120229087823, 32.016652325235412 ], [ 118.779371995577733, 32.01659730794406 ], [ 118.779617060545959, 32.016541918244819 ], [ 118.780347459896191, 32.016397437372554 ], [ 118.781380145972733, 32.016212632567679 ], [ 118.78241521151034, 32.016046070297385 ], [ 118.783259920167268, 32.015880499468864 ], [ 118.783670377190731, 32.015785321028623 ], [ 118.784119500455688, 32.015681219609768 ], [ 118.784601341309283, 32.015571169538156 ], [ 118.785152781397358, 32.015440894048233 ], [ 118.785277703100235, 32.015420073764375 ], [ 118.785411547781734, 32.015393304827995 ], [ 118.785557289768406, 32.015357612912993 ], [ 118.785706006081412, 32.015324895324135 ], [ 118.785848773741634, 32.01529217773534 ], [ 118.786074822537145, 32.015235665536323 ], [ 118.786501043489992, 32.015138107635181 ], [ 118.786667605760215, 32.015102415720008 ], [ 118.786867480484787, 32.015073862188018 ], [ 118.787094163803374, 32.015033807927658 ], [ 118.787403493734075, 32.01498027005502 ], [ 118.787539836849717, 32.014960242925014 ], [ 118.787705447335782, 32.014932641177289 ], [ 118.787872009606005, 32.014905991214022 ], [ 118.788224645727226, 32.0148507877187 ], [ 118.788345522346319, 32.014826041324255 ], [ 118.788506373910238, 32.014785114594908 ], [ 118.78884021228923, 32.014703816343882 ], [ 118.788960137124093, 32.014676214596157 ], [ 118.789018942098849, 32.014662604133008 ], [ 118.789086512125365, 32.014641353833191 ] ] } },
{ "type": "Feature", "properties": { "Name": "剪子巷", "len_km": 0.92322023652727991 }, "geometry": { "type": "LineString", "coordinates": [ [ 118.779370898487301, 32.01556179103688 ], [ 118.77973495602113, 32.015421402837497 ], [ 118.779983609696174, 32.015380952000335 ], [ 118.780172776846044, 32.015367790606774 ], [ 118.780502927060766, 32.01543917443685 ], [ 118.780749796140086, 32.015239894577526 ], [ 118.781237585646323, 32.015150664789871 ], [ 118.782340227876261, 32.014938178922087 ], [ 118.784121492385367, 32.014615524009692 ], [ 118.785135142773811, 32.014448069441414 ], [ 118.786295248987258, 32.014181450835622 ], [ 118.787109024651159, 32.014010129643403 ], [ 118.788545029368294, 32.013691678445369 ], [ 118.788773158315976, 32.013627376118514 ] ] } }
]
}
