{
"type": "FeatureCollection",
"name": "njlake",
"crs": { "type": "name", "properties": { "name": "urn:ogc:def:crs:OGC:1.3:CRS84" } },
"features": [
{ "type": "Feature", "properties": { "name": null, "fclass": "riverbank", "fclass_cn": "河岸/河堤", "area_ha": 4.3494879138965157 }, "geometry": { "type": "Polygon", "coordinates": [ [ [ 118.790650512311345, 32.010966967951276 ], [ 118.790575498960152, 32.010804837273497 ], [ 118.790474743414734, 32.010408096856224 ], [ 118.790346594519747, 32.009998525811341 ], [ 118.790215448184426, 32.009654420015522 ], [ 118.790117892426906, 32.009439565683465 ], [ 118.789804100079209, 32.009119499665246 ], [ 118.78954790031537, 32.009046599720875 ], [ 118.789230999910728, 32.008951199638204 ], [ 118.788837099552552, 32.008894699730661 ], [ 118.788411999913933, 32.008776599860255 ], [ 118.787840399814627, 32.008826899841608 ], [ 118.787396099650323, 32.008904700191806 ], [ 118.786901399679891, 32.008941100251604 ], [ 118.786323800203263, 32.008953699753476 ], [ 118.785327899962681, 32.009057200029815 ], [ 118.784902199576891, 32.009166500033984 ], [ 118.784449700293521, 32.00927789995518 ], [ 118.784262699763872, 32.009407100157603 ], [ 118.784835399733993, 32.009754500170118 ], [ 118.784996699438238, 32.009692799483162 ], [ 118.785166999557418, 32.009631499893828 ], [ 118.785409599773288, 32.009590599626506 ], [ 118.785573000293766, 32.00956289960817 ], [ 118.785977299512865, 32.009549800083278 ], [ 118.787081999734596, 32.009504499433149 ], [ 118.787727999847334, 32.009478099834496 ], [ 118.788232999753177, 32.00945039981616 ], [ 118.788875499704659, 32.009421299553367 ], [ 118.788999799501198, 32.009452300083638 ], [ 118.789241200021479, 32.009540199820435 ], [ 118.789435199974605, 32.009680799829084 ], [ 118.789605500093785, 32.009903099648398 ], [ 118.789750600310072, 32.010264799780714 ], [ 118.789916799520711, 32.010769500212291 ], [ 118.790026700272051, 32.011082699906751 ], [ 118.790650512311345, 32.010966967951276 ] ] ] } },
{ "type": "Feature", "properties": { "name": null, "fclass": "riverbank", "fclass_cn": "河岸/河堤", "area_ha": 10.10479695144128 }, "geometry": { "type": "Polygon", "coordinates": [ [ [ 118.784835399733993, 32.009754500170118 ], [ 118.784262699763872, 32.009407100157603 ], [ 118.783991000184528, 32.009545299875754 ], [ 118.783627299960017, 32.009967099901814 ], [ 118.783368199882602, 32.010435000075233 ], [ 118.783142399901863, 32.010913599483104 ], [ 118.782945999658182, 32.011154599804968 ], [ 118.78266169967776, 32.01132469937545 ], [ 118.782293799619197, 32.011498399831339 ], [ 118.781725299483014, 32.011753599549024 ], [ 118.781156800246208, 32.011863499401045 ], [ 118.780680299856044, 32.012012400152173 ], [ 118.780375099631215, 32.011923799843544 ], [ 118.780036499484936, 32.011860000138938 ], [ 118.77868240017267, 32.012201599524246 ], [ 118.776518699678263, 32.01282320013064 ], [ 118.775531399654483, 32.013234200198212 ], [ 118.774301799788304, 32.013760599472164 ], [ 118.773927399430022, 32.013906799559209 ], [ 118.773249499464896, 32.014171599539736 ], [ 118.772463400265792, 32.014409800272119 ], [ 118.771665399438689, 32.014615299856246 ], [ 118.771091899971225, 32.014635399703991 ], [ 118.770217900136004, 32.014516100137939 ], [ 118.77013530010413, 32.014783299509702 ], [ 118.770050299781587, 32.015127800107962 ], [ 118.770710299640655, 32.015181200052382 ], [ 118.771918400314007, 32.015220200052227 ], [ 118.772950900263936, 32.014986299877876 ], [ 118.775224999734064, 32.01409309951697 ], [ 118.775252599927626, 32.01408040019038 ], [ 118.775939799782009, 32.013763399960965 ], [ 118.775982600316866, 32.013754699919502 ], [ 118.776445600084458, 32.013660600256571 ], [ 118.776500000074975, 32.013582600256825 ], [ 118.777833499516419, 32.013174999626585 ], [ 118.779058299700864, 32.012813500043023 ], [ 118.780316599631419, 32.012497999882839 ], [ 118.781407599581144, 32.012178999561229 ], [ 118.782448500098212, 32.011913199534604 ], [ 118.783067199491711, 32.011618999817017 ], [ 118.783464299637785, 32.011335399509107 ], [ 118.783836399530287, 32.010888799778343 ], [ 118.783873099963671, 32.0108262995941 ], [ 118.784254399920655, 32.010176300196122 ], [ 118.784797200130697, 32.009782300013171 ], [ 118.784835399733993, 32.009754500170118 ] ] ] } },
{ "type": "Feature", "properties": { "name": null, "fclass": "water", "fclass_cn": "水域", "area_ha": 0.0078856066469947111 }, "geometry": { "type": "Polygon", "coordinates": [ [ [ 118.782020400321244, 32.012971699784146 ], [ 118.782038699726286, 32.012964199438329 ], [ 118.782051700325724, 32.012958899733462 ], [ 118.782043299758584, 32.012954699899524 ], [ 118.7820282999661, 32.012945499834984 ], [ 118.782018099855463, 32.012938700061 ], [ 118.782007899744826, 32.012929799470726 ], [ 118.782000199749518, 32.01291710014408 ], [ 118.781998299481984, 32.012904099544585 ], [ 118.78199609974024, 32.012891900241073 ], [ 118.781988100270723, 32.012878100144235 ], [ 118.781977599786501, 32.012869999950567 ], [ 118.781962599994017, 32.012869199553961 ], [ 118.781948200049442, 32.012871900218045 ], [ 118.781935800197061, 32.012876199876757 ], [ 118.781926500307804, 32.012883800047405 ], [ 118.7819210998789, 32.012892400264093 ], [ 118.781921699726695, 32.012902200176427 ], [ 118.781928100201753, 32.012910599844361 ], [ 118.781934800151021, 32.01291710014408 ], [ 118.781938999984959, 32.012925199438428 ], [ 118.781936400044856, 32.012932500134809 ], [ 118.781930700141743, 32.012938200037979 ], [ 118.781929399722117, 32.012945499834984 ], [ 118.781931999662106, 32.01295250015778 ], [ 118.781938999984959, 32.012959499581314 ], [ 118.781949799943391, 32.012963599590478 ], [ 118.781964500261552, 32.012965999881033 ], [ 118.781980400275302, 32.012966599728827 ], [ 118.781991899906302, 32.012966599728827 ], [ 118.782003699910888, 32.012969299493648 ], [ 118.782012300127576, 32.012972500180808 ], [ 118.782020400321244, 32.012971699784146 ] ] ] } },
{ "type": "Feature", "properties": { "name": null, "fclass": "riverbank", "fclass_cn": "河岸/河堤", "area_ha": 0.0021010004430543632 }, "geometry": { "type": "Polygon", "coordinates": [ [ [ 118.782099699841297, 32.013011000157576 ], [ 118.782077299527828, 32.012969000019382 ], [ 118.782051700325724, 32.012958899733462 ], [ 118.782038699726286, 32.012964199438329 ], [ 118.782020400321244, 32.012971699784146 ], [ 118.782054800288847, 32.01298719959965 ], [ 118.782071699449375, 32.013019300000735 ], [ 118.782088899882865, 32.013014200844736 ], [ 118.782099699841297, 32.013011000157576 ] ] ] } },
{ "type": "Feature", "properties": { "name": null, "fclass": "riverbank", "fclass_cn": "河岸/河堤", "area_ha": 0.030024094845401122 }, "geometry": { "type": "Polygon", "coordinates": [ [ [ 118.782132300265516, 32.013740799997947 ], [ 118.782185999684202, 32.013728199596812 ], [ 118.782341099462201, 32.013692000085769 ], [ 118.782282099439385, 32.013525499602167 ], [ 118.782260899720768, 32.013465799906783 ], [ 118.782221299873186, 32.013354199436833 ], [ 118.782144299919537, 32.013136899848121 ], [ 118.782123399675243, 32.013077999650022 ], [ 118.782099699841297, 32.013011000157576 ], [ 118.782088899882865, 32.013014200844736 ], [ 118.782071699449375, 32.013019300000735 ], [ 118.782087299988916, 32.013061499788421 ], [ 118.782100100039656, 32.013083300254152 ], [ 118.782124299896623, 32.013141099682059 ], [ 118.782152599762753, 32.013220099727846 ], [ 118.782199600131548, 32.01335959986568 ], [ 118.782237500260521, 32.01347249985605 ], [ 118.782257199909964, 32.013530999855789 ], [ 118.782301499614618, 32.013662499624729 ], [ 118.781995900090806, 32.013736499439972 ], [ 118.781999900275196, 32.013750500085564 ], [ 118.782005700003083, 32.013770399384498 ], [ 118.782132300265516, 32.013740799997947 ] ] ] } },
{ "type": "Feature", "properties": { "name": null, "fclass": "water", "fclass_cn": "水域", "area_ha": 0.012793497306061909 }, "geometry": { "type": "Polygon", "coordinates": [ [ [ 118.782537499705882, 32.013617899546489 ], [ 118.782521499867357, 32.013556299583627 ], [ 118.78237720004779, 32.013583299929394 ], [ 118.782398200116859, 32.013663999693904 ], [ 118.782529199862779, 32.013639499463409 ], [ 118.78254249993654, 32.0136370002474 ], [ 118.782537499705882, 32.013617899546489 ] ] ] } },
{ "type": "Feature", "properties": { "name": null, "fclass": "water", "fclass_cn": "水域", "area_ha": 0.031209724972443655 }, "geometry": { "type": "Polygon", "coordinates": [ [ [ 118.784082099709167, 32.013713600002689 ], [ 118.784107199787513, 32.013649799398763 ], [ 118.784138599616767, 32.013655100002893 ], [ 118.784169999446021, 32.013617899546489 ], [ 118.784147000184021, 32.013600100164524 ], [ 118.784157399944093, 32.013546899869596 ], [ 118.784086299543105, 32.0135752995605 ], [ 118.78402559980168, 32.013600100164524 ], [ 118.783941999723538, 32.013626699412725 ], [ 118.783967099801885, 32.013671099841417 ], [ 118.783988000046179, 32.013711899384703 ], [ 118.7839188997375, 32.013768599841057 ], [ 118.783929400221723, 32.013818299974616 ], [ 118.783969199718854, 32.013788099841008 ], [ 118.784013100124525, 32.013775699988628 ], [ 118.784033999469557, 32.013757999532118 ], [ 118.784063300281105, 32.013756199988677 ], [ 118.784111399621452, 32.013738499532167 ], [ 118.784082099709167, 32.013713600002689 ] ] ] } },
{ "type": "Feature", "properties": { "name": null, "fclass": "water", "fclass_cn": "水域", "area_ha": 0.0082190848155412818 }, "geometry": { "type": "Polygon", "coordinates": [ [ [ 118.782545000051755, 32.013782399937838 ], [ 118.782568399512115, 32.013774600117756 ], [ 118.782595800056242, 32.013756700011754 ], [ 118.782591399673379, 32.013723699389288 ], [ 118.782577999774958, 32.013681499601603 ], [ 118.782563299456797, 32.013675600048941 ], [ 118.782528899489193, 32.013675100025921 ], [ 118.782475899743076, 32.013684800113481 ], [ 118.782503999959658, 32.013793299721044 ], [ 118.782518499729008, 32.013789500085409 ], [ 118.782545000051755, 32.013782399937838 ] ], [ [ 118.782509100014977, 32.013710199666036 ], [ 118.782553700093217, 32.013699899730625 ], [ 118.782569699931742, 32.01375129958285 ], [ 118.782524400180932, 32.013762699389133 ], [ 118.782509100014977, 32.013710199666036 ] ] ] } },
{ "type": "Feature", "properties": { "name": null, "fclass": "riverbank", "fclass_cn": "河岸/河堤", "area_ha": 0.0148516182070598 }, "geometry": { "type": "Polygon", "coordinates": [ [ [ 118.782185999684202, 32.013728199596812 ], [ 118.782132300265516, 32.013740799997947 ], [ 118.782206999753271, 32.013979300204596 ], [ 118.782234699771607, 32.013972700080103 ], [ 118.782263999683892, 32.013965599932533 ], [ 118.782185999684202, 32.013728199596812 ] ] ] } },
{ "type": "Feature", "properties": { "name": null, "fclass": "riverbank", "fclass_cn": "河岸/河堤", "area_ha": 0.021411368634621612 }, "geometry": { "type": "Polygon", "coordinates": [ [ [ 118.782548399489087, 32.013792500223758 ], [ 118.782545000051755, 32.013782399937838 ], [ 118.782518499729008, 32.013789500085409 ], [ 118.782503999959658, 32.013793299721044 ], [ 118.782507199747556, 32.013802899983887 ], [ 118.782541400065611, 32.013905500038845 ], [ 118.78255799975193, 32.013955299997122 ], [ 118.782583699678071, 32.014032499600205 ], [ 118.782639099714743, 32.014198599885503 ], [ 118.782601099760996, 32.014207599401232 ], [ 118.782611200046858, 32.014234499922281 ], [ 118.782641246396452, 32.014227246889959 ], [ 118.78268949952087, 32.014215599770182 ], [ 118.782658199516391, 32.01412179958146 ], [ 118.782624900318979, 32.014021900190585 ], [ 118.782611700069992, 32.013982400167663 ], [ 118.782598900019252, 32.013944000015613 ], [ 118.782594200162293, 32.013929799720529 ], [ 118.782582499982482, 32.013894700080414 ], [ 118.782578200323769, 32.01388190002973 ], [ 118.782548399489087, 32.013792500223758 ] ] ] } },
{ "type": "Feature", "properties": { "name": null, "fclass": "riverbank", "fclass_cn": "河岸/河堤", "area_ha": 0.019632005206221947 }, "geometry": { "type": "Polygon", "coordinates": [ [ [ 118.782875799478575, 32.014692399634612 ], [ 118.782844700022906, 32.014601199385879 ], [ 118.782780900318357, 32.014619099491881 ], [ 118.782774699492848, 32.014602399980845 ], [ 118.782766999497539, 32.014581599561211 ], [ 118.7827366995391, 32.014495100068871 ], [ 118.782688600198753, 32.014365599492862 ], [ 118.782674899926747, 32.014327300064906 ], [ 118.782668799825274, 32.014310300180284 ], [ 118.782643599922267, 32.014234400097564 ], [ 118.782641246396452, 32.014227246889959 ], [ 118.782640999982277, 32.014226499553388 ], [ 118.782628600129897, 32.014229800065266 ], [ 118.782611200046858, 32.014234499922281 ], [ 118.782759199677344, 32.014649899473341 ], [ 118.782791700276789, 32.01464230020207 ], [ 118.782808299963108, 32.014690500266454 ], [ 118.782843999451075, 32.014683999966678 ], [ 118.782850399926133, 32.01470049982828 ], [ 118.782860100013636, 32.014697399865156 ], [ 118.782875799478575, 32.014692399634612 ] ] ] } },
{ "type": "Feature", "properties": { "name": null, "fclass": "water", "fclass_cn": "水域", "area_ha": 0.023913922590762377 }, "geometry": { "type": "Polygon", "coordinates": [ [ [ 118.782875799478575, 32.014692399634612 ], [ 118.782860100013636, 32.014697399865156 ], [ 118.782850399926133, 32.01470049982828 ], [ 118.782799599921645, 32.014716599491521 ], [ 118.782855499981451, 32.014865799716915 ], [ 118.782920399556815, 32.014848399633991 ], [ 118.783063099482547, 32.014811999574192 ], [ 118.783038799800806, 32.014741199546791 ], [ 118.78290689983362, 32.014777099583512 ], [ 118.782901399579941, 32.014761499943347 ], [ 118.782878899441698, 32.014698300086536 ], [ 118.782875799478575, 32.014692399634612 ] ] ] } },
{ "type": "Feature", "properties": { "name": null, "fclass": "riverbank", "fclass_cn": "河岸/河堤", "area_ha": 0.097601958537986505 }, "geometry": { "type": "Polygon", "coordinates": [ [ [ 118.791929952605301, 32.014957182528008 ], [ 118.79193479995115, 32.015275699913673 ], [ 118.791974999646527, 32.015623399400397 ], [ 118.792108799881248, 32.015614700258254 ], [ 118.792235225675199, 32.015624716907212 ], [ 118.792224686520171, 32.015580335364234 ], [ 118.792052162377445, 32.015222934890573 ], [ 118.791929952605301, 32.014957182528008 ] ] ] } },
{ "type": "Feature", "properties": { "name": null, "fclass": "riverbank", "fclass_cn": "河岸/河堤", "area_ha": 6.647962692017364 }, "geometry": { "type": "Polygon", "coordinates": [ [ [ 118.793697400114979, 32.023442000048306 ], [ 118.79357530006007, 32.022729899765125 ], [ 118.793379899862543, 32.021480799899052 ], [ 118.793213400278319, 32.020715000197129 ], [ 118.793069300108186, 32.019933000107926 ], [ 118.792901183542881, 32.019006583287251 ], [ 118.792797696756338, 32.018651134342406 ], [ 118.79269556344957, 32.018284151592354 ], [ 118.792577107447642, 32.017815299936217 ], [ 118.792573558722779, 32.017793025527737 ], [ 118.792515199916579, 32.017747000024087 ], [ 118.792234300272753, 32.016962199446027 ], [ 118.792060400167429, 32.016649899972947 ], [ 118.791945099886561, 32.016188199725661 ], [ 118.79196429951287, 32.015957399514434 ], [ 118.791967799674239, 32.015877399422493 ], [ 118.791971600209195, 32.015741799644388 ], [ 118.791974999646527, 32.015623399400397 ], [ 118.79193479995115, 32.015275699913673 ], [ 118.791929952605301, 32.014957182528008 ], [ 118.791918552799075, 32.014932392715821 ], [ 118.791797923135732, 32.014511151168733 ], [ 118.791768099818, 32.014092927746447 ], [ 118.791673057665548, 32.013571208544477 ], [ 118.791525035552013, 32.013137135470458 ], [ 118.791386624493157, 32.012798749362844 ], [ 118.791164496444367, 32.01230260867851 ], [ 118.791001690375765, 32.0118859257949 ], [ 118.79081765940748, 32.011474497649999 ], [ 118.790715539590565, 32.011107514899948 ], [ 118.790650512311345, 32.010966967951276 ], [ 118.790026700272051, 32.011082699906751 ], [ 118.790445199786177, 32.012243300188231 ], [ 118.790915100051848, 32.013485299906733 ], [ 118.791189500295218, 32.014221199848521 ], [ 118.791330200128641, 32.014989099467414 ], [ 118.791405600188341, 32.015646399561717 ], [ 118.791571999947905, 32.015626100064537 ], [ 118.791593900238354, 32.015759599925673 ], [ 118.79161629965256, 32.015895799551572 ], [ 118.791671500039797, 32.016132199841195 ], [ 118.791623499624848, 32.016710999912789 ], [ 118.791951799835715, 32.01761860021827 ], [ 118.792310800203381, 32.018564699601257 ], [ 118.792609299579567, 32.019642299652446 ], [ 118.79266299989763, 32.019996499438946 ], [ 118.792691600137346, 32.020430599492613 ], [ 118.792893099536968, 32.021228200121413 ], [ 118.79314609951291, 32.022222100269744 ], [ 118.79327100005662, 32.022822199884672 ], [ 118.793370500148512, 32.023503899485434 ], [ 118.793489399516261, 32.023481400246453 ], [ 118.793697400114979, 32.023442000048306 ] ] ] } },
{ "type": "Feature", "properties": { "name": null, "fclass": "riverbank", "fclass_cn": "河岸/河堤", "area_ha": 8.0379335040182802 }, "geometry": { "type": "Polygon", "coordinates": [ [ [ 118.770050299781587, 32.015127800107962 ], [ 118.77013530010413, 32.014783299509702 ], [ 118.770217900136004, 32.014516100137939 ], [ 118.768637499920715, 32.014272400051254 ], [ 118.768064899775368, 32.01424579990379 ], [ 118.767614399684817, 32.014234400097564 ], [ 118.767413899431972, 32.014145499415292 ], [ 118.767213599727938, 32.014149499599796 ], [ 118.766900699507687, 32.014248300019062 ], [ 118.766786699646559, 32.014146499461447 ], [ 118.766329499606741, 32.014302799834411 ], [ 118.766045699649339, 32.014400499483543 ], [ 118.765906199511505, 32.014440600253522 ], [ 118.765764299982493, 32.014503300087256 ], [ 118.765651499816954, 32.014584499874843 ], [ 118.765374999656615, 32.014667799579342 ], [ 118.764332000121726, 32.014941399426107 ], [ 118.764315000237161, 32.014992800177652 ], [ 118.764006999523417, 32.015089499780629 ], [ 118.763834800036079, 32.014966100205413 ], [ 118.763669799621653, 32.014999000103842 ], [ 118.763228399770924, 32.015175799623478 ], [ 118.76299549964267, 32.015342399931853 ], [ 118.762774799717249, 32.015426699682507 ], [ 118.762597699824028, 32.015428799599476 ], [ 118.762360000014041, 32.015461699497905 ], [ 118.762102900028822, 32.015556300083233 ], [ 118.761261200244235, 32.015648899677046 ], [ 118.760094499861339, 32.015918299689815 ], [ 118.759718499609107, 32.016033500145966 ], [ 118.759520397848178, 32.016072351757657 ], [ 118.75955839150663, 32.01623550586396 ], [ 118.760006600124598, 32.016204900136074 ], [ 118.760769899711136, 32.016925900110266 ], [ 118.761476200266543, 32.016674599852934 ], [ 118.761716900214878, 32.016384500144625 ], [ 118.762393499760265, 32.016188599924021 ], [ 118.762462399520132, 32.016125199518399 ], [ 118.762561199939455, 32.016107400136434 ], [ 118.762633000013011, 32.016125199518399 ], [ 118.763952999731259, 32.015764799805709 ], [ 118.765584399600471, 32.015300299968942 ], [ 118.76677269990023, 32.014980599974763 ], [ 118.767248599543336, 32.014932300085604 ], [ 118.767886199988197, 32.014886600136549 ], [ 118.768784200030836, 32.014962799693478 ], [ 118.770050299781587, 32.015127800107962 ] ] ] } },
{ "type": "Feature", "properties": { "name": null, "fclass": "riverbank", "fclass_cn": "河岸/河堤", "area_ha": 1.8069067514069379 }, "geometry": { "type": "Polygon", "coordinates": [ [ [ 118.78213009962451, 32.020267199871455 ], [ 118.781854800059023, 32.020195700171485 ], [ 118.781383499548951, 32.020060899890666 ], [ 118.781153300084839, 32.019972599955565 ], [ 118.780976099467466, 32.019848699457953 ], [ 118.780797899703316, 32.019572399846425 ], [ 118.780693500105031, 32.019417599542635 ], [ 118.780286199848319, 32.018708699946615 ], [ 118.78003749953109, 32.018295599962016 ], [ 118.779799000223761, 32.017528300190975 ], [ 118.779518199505333, 32.016368100107798 ], [ 118.779244199460322, 32.015836000031413 ], [ 118.779083499603871, 32.015633700235128 ], [ 118.77883320029207, 32.015430100019159 ], [ 118.778631899642505, 32.015326799392312 ], [ 118.77817859996253, 32.015204899886271 ], [ 118.777814899737905, 32.015197699913983 ], [ 118.777549300260034, 32.015235000195162 ], [ 118.777178900086255, 32.015296699982741 ], [ 118.776580099991634, 32.015486000078909 ], [ 118.776343000029442, 32.01564100003219 ], [ 118.776089599855254, 32.015759899399882 ], [ 118.775732700303934, 32.016118499569131 ], [ 118.775262399839903, 32.016718000235585 ], [ 118.775038299577886, 32.017022599713243 ], [ 118.774736399864992, 32.017373400062411 ], [ 118.77430169996353, 32.017990100262978 ], [ 118.774215400120625, 32.018208099524202 ], [ 118.774029299812355, 32.018783199784878 ], [ 118.773794199942472, 32.019576300206154 ], [ 118.773686599656912, 32.019996799812532 ], [ 118.773830899476479, 32.020128500130227 ], [ 118.773993799973937, 32.0192551001428 ], [ 118.774115599655261, 32.018830599452656 ], [ 118.774452199709344, 32.018008799866266 ], [ 118.774817599652579, 32.017460899600906 ], [ 118.775444199590197, 32.016769300263036 ], [ 118.77588919942707, 32.016136499499908 ], [ 118.776080499615432, 32.015965099509799 ], [ 118.77655659980735, 32.015674999801433 ], [ 118.777031399579528, 32.01550159971913 ], [ 118.777487099550058, 32.015353500263871 ], [ 118.77779000020837, 32.015293799669166 ], [ 118.778097900197963, 32.0153224997336 ], [ 118.778557899827319, 32.015421499802414 ], [ 118.778855599706276, 32.015576399930978 ], [ 118.779019699899322, 32.015724100087198 ], [ 118.779205800207592, 32.0159779993852 ], [ 118.779297100281042, 32.016188799573513 ], [ 118.779413799907047, 32.016485699955126 ], [ 118.779496700312507, 32.016796899557335 ], [ 118.779664199942886, 32.01745090003908 ], [ 118.779900999531606, 32.018203799865546 ], [ 118.779992299605055, 32.018418999537232 ], [ 118.780237599585575, 32.018844899572514 ], [ 118.780616500151382, 32.019539099749693 ], [ 118.780815299786354, 32.019904499692984 ], [ 118.781155099628222, 32.020063999853789 ], [ 118.78150769952083, 32.020190999415149 ], [ 118.782052099624707, 32.02034899950678 ], [ 118.78213009962451, 32.020267199871455 ] ] ] } },
{ "type": "Feature", "properties": { "name": null, "fclass": "water", "fclass_cn": "水域", "area_ha": 0.45650100425975398 }, "geometry": { "type": "Polygon", "coordinates": [ [ [ 118.768613999736317, 32.018176299496702 ], [ 118.76848249996749, 32.018077999999775 ], [ 118.768390899520455, 32.0180939998383 ], [ 118.76821250010687, 32.017937900014147 ], [ 118.768141600254694, 32.0180185997786 ], [ 118.768161200079362, 32.018164899690419 ], [ 118.76815040012093, 32.018292299450138 ], [ 118.768193299581185, 32.018428699624849 ], [ 118.768128999853502, 32.018583400103864 ], [ 118.768128999853502, 32.018719799379312 ], [ 118.768242300042175, 32.018875400079708 ], [ 118.768584899473581, 32.018827399664815 ], [ 118.768758199731224, 32.018808799886244 ], [ 118.768741699869565, 32.018655399826912 ], [ 118.768819199846234, 32.018575399734971 ], [ 118.768707399726736, 32.018386400012389 ], [ 118.768613999736317, 32.018176299496702 ] ] ] } },
{ "type": "Feature", "properties": { "name": null, "fclass": "water", "fclass_cn": "水域", "area_ha": 3.0511149700014153 }, "geometry": { "type": "Polygon", "coordinates": [ [ [ 118.78951179972978, 32.021585300221489 ], [ 118.78953859952685, 32.021698999709145 ], [ 118.789657399969087, 32.021679599533968 ], [ 118.78976929991336, 32.02150339986207 ], [ 118.789961500322988, 32.021236499964573 ], [ 118.790360599661994, 32.021072599420961 ], [ 118.79063299981317, 32.021080699614629 ], [ 118.790750199462195, 32.021086100043533 ], [ 118.79082940005685, 32.021024299531859 ], [ 118.790836799678573, 32.020902999873613 ], [ 118.790777799655757, 32.020593799464336 ], [ 118.790905899987365, 32.020413099584914 ], [ 118.79110550001883, 32.020370099400623 ], [ 118.791367899708916, 32.020329999529906 ], [ 118.791367899708916, 32.020157099470623 ], [ 118.791223000041441, 32.020184400189976 ], [ 118.791131799792765, 32.020261699617777 ], [ 118.790883700222594, 32.020294899889791 ], [ 118.790788499789528, 32.020325399497665 ], [ 118.790622199854738, 32.02033449973743 ], [ 118.79040760003079, 32.020416400096849 ], [ 118.790166199510509, 32.02053919982427 ], [ 118.789957000115578, 32.02021630004225 ], [ 118.789865799866789, 32.019956999416024 ], [ 118.789924799889718, 32.019624999394239 ], [ 118.790026800096825, 32.019397599519664 ], [ 118.790144800142457, 32.019211099912354 ], [ 118.79027350032186, 32.019124700244788 ], [ 118.790380800233834, 32.019133799585234 ], [ 118.790514899942764, 32.019138299792758 ], [ 118.790343300303107, 32.018615299956195 ], [ 118.790418399989221, 32.018456100168919 ], [ 118.790271600054325, 32.018060299543265 ], [ 118.790176999469054, 32.017887500208019 ], [ 118.79006969955708, 32.017878399968254 ], [ 118.789796099710316, 32.017969399668118 ], [ 118.789667299706139, 32.018024000207504 ], [ 118.789535799937312, 32.017969799866421 ], [ 118.789286499772174, 32.017946600055609 ], [ 118.789264999680086, 32.018037599755473 ], [ 118.789409799522673, 32.018142199902627 ], [ 118.789565400223069, 32.018264999630105 ], [ 118.78974240029163, 32.018392399389768 ], [ 118.789860500162035, 32.018565199624334 ], [ 118.789855099733131, 32.018678900011253 ], [ 118.789962399645106, 32.018938199738159 ], [ 118.789898000092649, 32.019110999972725 ], [ 118.789780000047017, 32.019115600004966 ], [ 118.789699499931999, 32.019006399825571 ], [ 118.789517099434647, 32.018874499858327 ], [ 118.789361599458289, 32.018910899918126 ], [ 118.789291799477041, 32.018951800185505 ], [ 118.789447400177437, 32.019533999694374 ], [ 118.789441999748533, 32.019838799720901 ], [ 118.789441999748533, 32.020016100162934 ], [ 118.789275699813743, 32.02012979965059 ], [ 118.78914699963434, 32.020179899982452 ], [ 118.78903969972248, 32.020107099862798 ], [ 118.788873399787576, 32.019925199388467 ], [ 118.788696399719129, 32.019779600048537 ], [ 118.788642700300443, 32.019825099448838 ], [ 118.788744699608287, 32.020175299950211 ], [ 118.788792899672671, 32.02049369952465 ], [ 118.788767799594325, 32.020729400141761 ], [ 118.788878499843008, 32.021012499527274 ], [ 118.789085499496309, 32.021101400209488 ], [ 118.789306599619977, 32.021106199891278 ], [ 118.789337699974908, 32.021105699868201 ], [ 118.789625699766248, 32.021099499942011 ], [ 118.78970489946164, 32.021206899678702 ], [ 118.789667299706139, 32.021412400162205 ], [ 118.78951179972978, 32.021585300221489 ] ], [ [ 118.789459300006797, 32.020346899589811 ], [ 118.789700699627701, 32.02030140018951 ], [ 118.78989380025871, 32.020378799442085 ], [ 118.789968899944824, 32.020606200216037 ], [ 118.7898571996501, 32.020747199523669 ], [ 118.789507599895842, 32.020901800177967 ], [ 118.789276899509332, 32.020992799877888 ], [ 118.789148200229306, 32.020983699638066 ], [ 118.788997999957814, 32.020933700030298 ], [ 118.788895999750594, 32.020833600090612 ], [ 118.788895999750594, 32.020697100091127 ], [ 118.788955099598184, 32.020569800156181 ], [ 118.789083799777586, 32.020456099769262 ], [ 118.789228599620287, 32.020378799442085 ], [ 118.789459300006797, 32.020346899589811 ] ] ] } },
{ "type": "Feature", "properties": { "name": null, "fclass": "riverbank", "fclass_cn": "河岸/河堤", "area_ha": 1.2019063187056802 }, "geometry": { "type": "Polygon", "coordinates": [ [ [ 118.786724600160255, 32.022917299593757 ], [ 118.786159999484425, 32.022536499659793 ], [ 118.785728600094899, 32.022287999891319 ], [ 118.785503399961954, 32.022136000076387 ], [ 118.785379999487418, 32.022045700049091 ], [ 118.785244200059878, 32.021951800035595 ], [ 118.785157400193953, 32.021881400206496 ], [ 118.785084600074242, 32.021803900229884 ], [ 118.784946699830357, 32.021614699958491 ], [ 118.784462600168922, 32.021288700213404 ], [ 118.784181999999419, 32.02127499994134 ], [ 118.78343709964247, 32.020800899841731 ], [ 118.783192899532764, 32.020619499390421 ], [ 118.782982899741114, 32.02053390011946 ], [ 118.782607500236054, 32.020410999667945 ], [ 118.78213009962451, 32.020267199871455 ], [ 118.782052099624707, 32.02034899950678 ], [ 118.782863199976759, 32.020613900211401 ], [ 118.783261099620063, 32.020840499689371 ], [ 118.783653699558613, 32.021118900117187 ], [ 118.783803999654879, 32.021208499572651 ], [ 118.783847199488719, 32.02124050014902 ], [ 118.783861999631654, 32.021268999664642 ], [ 118.78386330005128, 32.021291699452433 ], [ 118.783845899968355, 32.021309899931964 ], [ 118.783965300258501, 32.021379299714965 ], [ 118.783957200064833, 32.021392900162255 ], [ 118.784024300281317, 32.021439499433427 ], [ 118.783996100239847, 32.02166349987067 ], [ 118.784057499653954, 32.021693700004278 ], [ 118.784093600239544, 32.02167110004126 ], [ 118.784812299747841, 32.02213340013634 ], [ 118.784848599982979, 32.022154400205466 ], [ 118.784955399871819, 32.022073400067427 ], [ 118.78510720003726, 32.022043999431105 ], [ 118.785257500133639, 32.022132599739734 ], [ 118.786628399680922, 32.023041799939165 ], [ 118.786683399519347, 32.02297059971346 ], [ 118.786724600160255, 32.022917299593757 ] ] ] } },
{ "type": "Feature", "properties": { "name": "小运河", "fclass": "riverbank", "fclass_cn": "河岸/河堤", "area_ha": 0.38471810959327557 }, "geometry": { "type": "Polygon", "coordinates": [ [ [ 118.78953859952685, 32.021698999709145 ], [ 118.78951179972978, 32.021585300221489 ], [ 118.789370599873337, 32.021626599787794 ], [ 118.789056199584024, 32.021649399400303 ], [ 118.788838599621727, 32.02175000026233 ], [ 118.788688000051252, 32.021885299666906 ], [ 118.788450599715475, 32.022030700256664 ], [ 118.788312900020401, 32.022107700210256 ], [ 118.78822419988694, 32.022232000006852 ], [ 118.788142400251672, 32.022351299572847 ], [ 118.788086500191866, 32.02258719983945 ], [ 118.788057599578565, 32.022774099645062 ], [ 118.788020699495746, 32.022949999842695 ], [ 118.787958800058618, 32.023071799523962 ], [ 118.787794299667212, 32.023292499449326 ], [ 118.787700499478547, 32.023388100080808 ], [ 118.787574199589699, 32.023415999748636 ], [ 118.78775169968128, 32.023552499748121 ], [ 118.787792000100808, 32.023483199789894 ], [ 118.787897999593042, 32.023378499817966 ], [ 118.788038899975277, 32.023141499680492 ], [ 118.78813330001185, 32.023023299985368 ], [ 118.788132499615244, 32.022897699769089 ], [ 118.788131799942676, 32.022779400249192 ], [ 118.788189899744111, 32.022524500005716 ], [ 118.788274199494822, 32.022392799688021 ], [ 118.788375099831001, 32.02224010020052 ], [ 118.78854570032388, 32.022158199841101 ], [ 118.788759999774243, 32.022060899490953 ], [ 118.788783900156886, 32.022025799850837 ], [ 118.788879099690803, 32.02191809974056 ], [ 118.789065700022093, 32.021791200003918 ], [ 118.789357600173162, 32.021716700165655 ], [ 118.789460800075972, 32.021754299921042 ], [ 118.78953859952685, 32.021698999709145 ] ] ] } },
{ "type": "Feature", "properties": { "name": null, "fclass": "water", "fclass_cn": "水域", "area_ha": 0.015307185988593847 }, "geometry": { "type": "Polygon", "coordinates": [ [ [ 118.780178300088551, 32.022877500096627 ], [ 118.78010540014418, 32.022823399580261 ], [ 118.779965699457534, 32.022856900225804 ], [ 118.779914000131043, 32.022841399511037 ], [ 118.77988969955004, 32.022861999381803 ], [ 118.779914000131043, 32.022882600151945 ], [ 118.779907999854345, 32.022918699838158 ], [ 118.780002099517333, 32.022905799962757 ], [ 118.780102300181056, 32.022887800031981 ], [ 118.780178300088551, 32.022877500096627 ] ] ] } },
{ "type": "Feature", "properties": { "name": null, "fclass": "water", "fclass_cn": "水域", "area_ha": 0.032549818465695719 }, "geometry": { "type": "Polygon", "coordinates": [ [ [ 118.779762199965603, 32.023250899509435 ], [ 118.779825999670265, 32.023168500026316 ], [ 118.779886700311067, 32.023173600081634 ], [ 118.779865399868413, 32.023114399510007 ], [ 118.779871499969772, 32.023067999888326 ], [ 118.779856299628591, 32.023032000026831 ], [ 118.779807700265224, 32.023024300031466 ], [ 118.779737900283976, 32.022990799385923 ], [ 118.779701399500027, 32.023006199376653 ], [ 118.779698400261054, 32.023116999449996 ], [ 118.779713599702973, 32.02317620002168 ], [ 118.779762199965603, 32.023250899509435 ] ] ] } },
{ "type": "Feature", "properties": { "name": null, "fclass": "water", "fclass_cn": "水域", "area_ha": 0.021428981420584022 }, "geometry": { "type": "Polygon", "coordinates": [ [ [ 118.780132699964156, 32.023613900061491 ], [ 118.780199499807168, 32.023608800006173 ], [ 118.780248100069798, 32.023608800006173 ], [ 118.780266299650066, 32.023546999494499 ], [ 118.780138800065629, 32.023531499678995 ], [ 118.780005099655682, 32.023521199743641 ], [ 118.780044599678604, 32.023647399807714 ], [ 118.780132699964156, 32.023613900061491 ] ] ] } },
{ "type": "Feature", "properties": { "name": null, "fclass": "riverbank", "fclass_cn": "河岸/河堤", "area_ha": 0.85666675649769608 }, "geometry": { "type": "Polygon", "coordinates": [ [ [ 118.791670199620057, 32.024867599959805 ], [ 118.791173899755677, 32.024838999720089 ], [ 118.790804800001524, 32.024828799609452 ], [ 118.790117199948895, 32.02482629949418 ], [ 118.789820900314339, 32.02476369948522 ], [ 118.789540599619045, 32.024675799748422 ], [ 118.789134699606734, 32.024449999767739 ], [ 118.788520499521496, 32.024061999861431 ], [ 118.78775169968128, 32.023552499748121 ], [ 118.787574199589699, 32.023415999748636 ], [ 118.78750909946541, 32.023366000140868 ], [ 118.787227000125995, 32.023168599851033 ], [ 118.786724600160255, 32.022917299593757 ], [ 118.786683399519347, 32.02297059971346 ], [ 118.786628399680922, 32.023041799939165 ], [ 118.787018200029934, 32.023239200228943 ], [ 118.787524600180177, 32.023580000116965 ], [ 118.787882899975898, 32.023847900060616 ], [ 118.788083199679932, 32.024007000023062 ], [ 118.788661599553279, 32.024349099431447 ], [ 118.789105899717583, 32.024613399388898 ], [ 118.789258299730818, 32.024735299794315 ], [ 118.789301999587678, 32.024865699692327 ], [ 118.789468699720828, 32.024868500181185 ], [ 118.789802799659583, 32.024874100259581 ], [ 118.790152599962539, 32.024915899848963 ], [ 118.790671699439486, 32.024941099752027 ], [ 118.791024400056131, 32.02492429951684 ], [ 118.791319199621398, 32.024936300070237 ], [ 118.791662899822995, 32.024994599521222 ], [ 118.791670199620057, 32.024867599959805 ] ] ] } },
{ "type": "Feature", "properties": { "name": null, "fclass": "riverbank", "fclass_cn": "河岸/河堤", "area_ha": 1.058009511151351 }, "geometry": { "type": "Polygon", "coordinates": [ [ [ 118.793697400114979, 32.023442000048306 ], [ 118.793489399516261, 32.023481400246453 ], [ 118.793370500148512, 32.023503899485434 ], [ 118.793416200097568, 32.023754799544406 ], [ 118.793509600087987, 32.024157899967179 ], [ 118.793534999640542, 32.024317099754398 ], [ 118.793582699681906, 32.024382500252216 ], [ 118.793734900045706, 32.024622599453437 ], [ 118.79376539965358, 32.024620899734771 ], [ 118.793798900299066, 32.024737899734362 ], [ 118.793710599464703, 32.024805900172225 ], [ 118.793635499778588, 32.024887599982833 ], [ 118.793554299991001, 32.024941799424539 ], [ 118.793410099996208, 32.024926399433866 ], [ 118.793335000310094, 32.02490309979828 ], [ 118.793066100320289, 32.024884199646124 ], [ 118.792688500174222, 32.024939300208587 ], [ 118.792889499550824, 32.025336799653644 ], [ 118.793122899702098, 32.025240399524876 ], [ 118.793461999871511, 32.02518139950206 ], [ 118.794055600085926, 32.025069100258804 ], [ 118.794314899812889, 32.024744800232384 ], [ 118.794363199701934, 32.024576600030116 ], [ 118.794025300127601, 32.02431729940389 ], [ 118.793845600294276, 32.024089100031972 ], [ 118.793756199588984, 32.023841299936123 ], [ 118.793697400114979, 32.023442000048306 ] ] ] } },
{ "type": "Feature", "properties": { "name": null, "fclass": "riverbank", "fclass_cn": "河岸/河堤", "area_ha": 0.70646052622608846 }, "geometry": { "type": "Polygon", "coordinates": [ [ [ 118.792943899541342, 32.025693799929002 ], [ 118.792997199661045, 32.025874499808367 ], [ 118.793164899840349, 32.025787199919364 ], [ 118.793896500123424, 32.025672600210385 ], [ 118.794116399652239, 32.025649899523273 ], [ 118.794325699771321, 32.02554529937612 ], [ 118.79445439995061, 32.025381599381376 ], [ 118.794691999935935, 32.02523039996305 ], [ 118.79510249998043, 32.025170899917157 ], [ 118.795226254787849, 32.025166916819785 ], [ 118.795137910786025, 32.024677820525028 ], [ 118.795060599666954, 32.024672099937504 ], [ 118.794754799594443, 32.02464020008523 ], [ 118.794583199954786, 32.024685699485474 ], [ 118.794293499545461, 32.025217799561858 ], [ 118.794229099993004, 32.0253860995889 ], [ 118.794105699518468, 32.025481599496288 ], [ 118.792943899541342, 32.025693799929002 ] ] ] } },
{ "type": "Feature", "properties": { "name": null, "fclass": "riverbank", "fclass_cn": "河岸/河堤", "area_ha": 2.523410308983177 }, "geometry": { "type": "Polygon", "coordinates": [ [ [ 118.773830899476479, 32.020128500130227 ], [ 118.773686599656912, 32.019996799812532 ], [ 118.773615599979962, 32.020521899566063 ], [ 118.772968799470618, 32.02330230026098 ], [ 118.772781700015457, 32.024298699625319 ], [ 118.772535099615197, 32.024794700015434 ], [ 118.771956900290775, 32.025675700173451 ], [ 118.771587799637359, 32.026173099908704 ], [ 118.771098000072698, 32.026670599468616 ], [ 118.770256199564074, 32.027351099373789 ], [ 118.76902990020983, 32.028193300080773 ], [ 118.768454899773815, 32.028582099484368 ], [ 118.767834700311255, 32.028988999542719 ], [ 118.767221600096832, 32.029321399762864 ], [ 118.766306699994288, 32.029835199534887 ], [ 118.765805300074589, 32.030060799866078 ], [ 118.765166099735779, 32.03038709998475 ], [ 118.764866700138214, 32.03055640005789 ], [ 118.764581499936298, 32.030701399550026 ], [ 118.76463289978858, 32.030928499950392 ], [ 118.764682900295725, 32.031201699598796 ], [ 118.764704899511571, 32.031010199760942 ], [ 118.764770800032466, 32.030919700084155 ], [ 118.76533119997498, 32.030609700177592 ], [ 118.765692099710691, 32.030362199555896 ], [ 118.765999800050849, 32.030193199856342 ], [ 118.766221099823952, 32.03007340026727 ], [ 118.766753199900336, 32.029777999954774 ], [ 118.767181699875664, 32.029555799960235 ], [ 118.767536399685127, 32.02934289985501 ], [ 118.768570700077817, 32.028680200231122 ], [ 118.768996100090021, 32.028371499844866 ], [ 118.769590900000139, 32.027990999385167 ], [ 118.769936200095572, 32.027739499478344 ], [ 118.770290999729923, 32.027469299968288 ], [ 118.770735200069453, 32.02717789984024 ], [ 118.770846599990705, 32.027032899448784 ], [ 118.77151520006646, 32.026473999575444 ], [ 118.771885600240353, 32.026022899637155 ], [ 118.772307900289434, 32.025405499764076 ], [ 118.772762999512906, 32.024636299725501 ], [ 118.772991899456656, 32.024107000137974 ], [ 118.77308729953927, 32.023493499725305 ], [ 118.773429200197484, 32.022004899606486 ], [ 118.773611199597212, 32.021302899609168 ], [ 118.773619600164466, 32.021258000056719 ], [ 118.773830899476479, 32.020128500130227 ] ] ] } },
{ "type": "Feature", "properties": { "name": null, "fclass": "water", "fclass_cn": "水域", "area_ha": 0.20053404871649108 }, "geometry": { "type": "Polygon", "coordinates": [ [ [ 118.789468699720828, 32.024868500181185 ], [ 118.789301999587678, 32.024865699692327 ], [ 118.789292199675288, 32.02504159988996 ], [ 118.789034099644027, 32.025543900031039 ], [ 118.788806199746432, 32.026023899683253 ], [ 118.788735799917276, 32.02609319964148 ], [ 118.788542800010305, 32.026227999922298 ], [ 118.788065299573987, 32.026566399519766 ], [ 118.788389399950916, 32.026379800087739 ], [ 118.788768899465254, 32.026137000222434 ], [ 118.788897300170333, 32.026034199618664 ], [ 118.788952300008646, 32.025944499439163 ], [ 118.78918219999855, 32.025548599887998 ], [ 118.789357100150141, 32.025211399986176 ], [ 118.789419200136081, 32.024973399802604 ], [ 118.789468699720828, 32.024868500181185 ] ] ] } },
{ "type": "Feature", "properties": { "name": null, "fclass": "riverbank", "fclass_cn": "河岸/河堤", "area_ha": 0.61184276052881037 }, "geometry": { "type": "Polygon", "coordinates": [ [ [ 118.792997199661045, 32.025874499808367 ], [ 118.792943899541342, 32.025693799929002 ], [ 118.792880199661568, 32.025634299883109 ], [ 118.792847899610933, 32.025451199713132 ], [ 118.792889499550824, 32.025336799653644 ], [ 118.792688500174222, 32.024939300208587 ], [ 118.792433799580294, 32.024901300254839 ], [ 118.791812600071466, 32.024885799540073 ], [ 118.791670199620057, 32.024867599959805 ], [ 118.791662899822995, 32.024994599521222 ], [ 118.79222279974249, 32.025068399686972 ], [ 118.792433799580294, 32.025197400239904 ], [ 118.792550099907203, 32.025404300068431 ], [ 118.792749600114007, 32.025936099771229 ], [ 118.792871599444766, 32.026299999645346 ], [ 118.792927600228609, 32.026500800271776 ], [ 118.792974900071613, 32.026628499505705 ], [ 118.793035199614792, 32.026854900233502 ], [ 118.793205999757106, 32.02679769975407 ], [ 118.793135699752838, 32.026611499621083 ], [ 118.792970599513637, 32.026142999599813 ], [ 118.792936199546034, 32.025949499669707 ], [ 118.792997199661045, 32.025874499808367 ] ] ] } },
{ "type": "Feature", "properties": { "name": null, "fclass": "riverbank", "fclass_cn": "河岸/河堤", "area_ha": 19.126751109299157 }, "geometry": { "type": "Polygon", "coordinates": [ [ [ 118.760769899711136, 32.016925900110266 ], [ 118.760006600124598, 32.016204900136074 ], [ 118.76006159996291, 32.016402199701815 ], [ 118.760107899759873, 32.017038599551768 ], [ 118.761008599567276, 32.019909499923529 ], [ 118.76138049981023, 32.021086899540819 ], [ 118.761733800274669, 32.022957199814982 ], [ 118.761785200126951, 32.02304859971315 ], [ 118.7618186000484, 32.023135699952661 ], [ 118.761844299974541, 32.023240199375778 ], [ 118.761844299974541, 32.023316399832026 ], [ 118.761844299974541, 32.023375200205351 ], [ 118.761995799766396, 32.023919499585304 ], [ 118.762286000198856, 32.024825299448082 ], [ 118.762537699755057, 32.02604029972008 ], [ 118.762614699708706, 32.027257399909104 ], [ 118.762650699570145, 32.027655799575541 ], [ 118.762655799625463, 32.028226299803919 ], [ 118.762540199870386, 32.028931700137889 ], [ 118.762542799810376, 32.028986100128463 ], [ 118.762547899865694, 32.029066700068199 ], [ 118.762540199870386, 32.029131999841979 ], [ 118.762519699824338, 32.029271299431002 ], [ 118.762491399958208, 32.029323599504551 ], [ 118.762368200032483, 32.030257599408742 ], [ 118.762398099792563, 32.030857899572482 ], [ 118.762530699432318, 32.031505999602246 ], [ 118.762659600160532, 32.032192699433608 ], [ 118.762872100067398, 32.032943899541408 ], [ 118.762932000311594, 32.033085599420929 ], [ 118.762955600320765, 32.033164099443695 ], [ 118.762942900094799, 32.033424199567207 ], [ 118.762982800316081, 32.033992299505087 ], [ 118.762997399910091, 32.03430019949468 ], [ 118.763008299693297, 32.03442329959563 ], [ 118.763020999919263, 32.034509499613762 ], [ 118.763010100136057, 32.034563399581259 ], [ 118.762988299670383, 32.034626499613296 ], [ 118.762984699684239, 32.034726599552982 ], [ 118.762964699661211, 32.035003699561116 ], [ 118.762975599444417, 32.035102199606854 ], [ 118.762915600274823, 32.035273099573942 ], [ 118.762726800201676, 32.035722599618339 ], [ 118.762548800087075, 32.036393799634197 ], [ 118.762292799972784, 32.037254299746166 ], [ 118.762280099746818, 32.037385199667256 ], [ 118.762276399936013, 32.037462199620848 ], [ 118.762232799903813, 32.037540699643614 ], [ 118.762200199479707, 32.037585299721854 ], [ 118.761962300020173, 32.038296499783712 ], [ 118.761917081208367, 32.038489360295785 ], [ 118.761994406716553, 32.038513753506948 ], [ 118.762622584964333, 32.038375744445091 ], [ 118.762765668001293, 32.038334516824534 ], [ 118.762804199454308, 32.038189399521229 ], [ 118.762897200145744, 32.037941499600549 ], [ 118.763356299553607, 32.036510199785937 ], [ 118.763471099811454, 32.036080099916717 ], [ 118.763567800313808, 32.035611500070729 ], [ 118.763613100064617, 32.03535800007171 ], [ 118.763600999686446, 32.035194200252192 ], [ 118.763637200096809, 32.035073799916006 ], [ 118.763664400092011, 32.034881800055075 ], [ 118.763718800082643, 32.034136700048748 ], [ 118.763709699842821, 32.033839699842304 ], [ 118.763658399815313, 32.033396700097683 ], [ 118.763597999548097, 32.032756599537493 ], [ 118.763434900300467, 32.032098499945846 ], [ 118.763274800291811, 32.031693899453956 ], [ 118.763190200167628, 32.031325199898106 ], [ 118.763233800199828, 32.031327600188661 ], [ 118.763186399632673, 32.031178099589681 ], [ 118.763114700283268, 32.030687800001999 ], [ 118.7631820001493, 32.030613399988454 ], [ 118.763196400093875, 32.030344400173988 ], [ 118.763126799762063, 32.030170400243833 ], [ 118.763401299830207, 32.029122600127948 ], [ 118.76357860027224, 32.028273399997488 ], [ 118.763690699865947, 32.02821149966104 ], [ 118.763623800198275, 32.027708999870526 ], [ 118.763385999664251, 32.026082499507822 ], [ 118.763031100205126, 32.024433199532609 ], [ 118.762709699593074, 32.023039299823893 ], [ 118.762475300294909, 32.021497799783674 ], [ 118.76242159997696, 32.021299699821327 ], [ 118.762378199594309, 32.021097599674533 ], [ 118.76223759958566, 32.020648999851517 ], [ 118.761852299444172, 32.019600199689535 ], [ 118.761739500177896, 32.019621000109112 ], [ 118.761386699736477, 32.018554700039431 ], [ 118.760973199553632, 32.017692299659927 ], [ 118.760769899711136, 32.016925900110266 ] ] ] } },
{ "type": "Feature", "properties": { "name": "泮池", "fclass": "water", "fclass_cn": "水域", "area_ha": 0.029932475581299512 }, "geometry": { "type": "Polygon", "coordinates": [ [ [ 118.769270499434015, 32.035234999795478 ], [ 118.769232700029193, 32.03522739962483 ], [ 118.769191899586531, 32.03522829984621 ], [ 118.7691521000894, 32.035240900247402 ], [ 118.769110299600698, 32.035263699859911 ], [ 118.769068500011372, 32.035291599527739 ], [ 118.769045599674769, 32.035326999541439 ], [ 118.769042599536419, 32.035382699951697 ], [ 118.769060499642364, 32.035419000186778 ], [ 118.76933520025932, 32.03527640008582 ], [ 118.769307299692173, 32.035255300191977 ], [ 118.769270499434015, 32.035234999795478 ] ] ] } }
]
}
